Street,City,County,Zip,State,Country
7235 S MOZART ST,CHICAGO,COOK,60629,Illinois,United States
8128 S KEDZIE AVE,CHICAGO,COOK,60652,Illinois,United States
2827 N AUSTIN AVE,CHICAGO,COOK,60634,Illinois,United States
1025 W VAN BUREN ST,CHICAGO,COOK,60607,Illinois,United States
3345 N SPRINGFIELD AVE,CHICAGO,COOK,60618,Illinois,United States
5239 S KEDZIE AVE APT 2,CHICAGO,COOK,60632,Illinois,United States
389 W 16TH ST,CHICAGO HTS,COOK,60411,Illinois,United States
750 N NOBLE ST APT E,CHICAGO,COOK,60642,Illinois,United States
3701 W OGDEN AVE,CHICAGO,COOK,60623,Illinois,United States
1424 N CLEAVER ST,CHICAGO,COOK,60642,Illinois,United States
3713 W MCLEAN AVE,CHICAGO,COOK,60647,Illinois,United States
8721 S WOOD ST,CHICAGO,COOK,60620,Illinois,United States
4721 S LECLAIRE AVE,CHICAGO,COOK,60638,Illinois,United States
2623 S KEELER AVE,CHICAGO,COOK,60623,Illinois,United States
5150 S KEDZIE AVE,CHICAGO,COOK,60632,Illinois,United States
2224 N MONTICELLO AVE,CHICAGO,COOK,60647,Illinois,United States
3900 W 67TH PL,CHICAGO,COOK,60629,Illinois,United States
4303 N SAINT LOUIS AVE,CHICAGO,COOK,60618,Illinois,United States
5134 S RICHMOND ST,CHICAGO,COOK,60632,Illinois,United States
3234 W 66TH ST,CHICAGO,COOK,60629,Illinois,United States
2318 S HOYNE AVE,CHICAGO,COOK,60608,Illinois,United States
5243 W BARRY AVE,CHICAGO,COOK,60641,Illinois,United States
13143 S AVENUE M,CHICAGO,COOK,60633,Illinois,United States
4255 S ARCHER AVE,CHICAGO,COOK,60632,Illinois,United States
3053 W 54TH PL,CHICAGO,COOK,60632,Illinois,United States
5239 S KEDZIE AVE FL 1ST,CHICAGO,COOK,60632,Illinois,United States
2929 N MEADE AVE,CHICAGO,COOK,60634,Illinois,United States
2326 W 21ST PL,CHICAGO,COOK,60608,Illinois,United States
6015 W BELMONT AVE APT 1,CHICAGO,COOK,60634,Illinois,United States
3716 W 79TH PL,CHICAGO,COOK,60652,Illinois,United States
1436 W 50TH ST APT 1F,CHICAGO,COOK,60609,Illinois,United States
5245 W WARWICK AVE,CHICAGO,COOK,60641,Illinois,United States
3851 W 31ST ST,CHICAGO,COOK,60623,Illinois,United States
4833 W CORTLAND ST,CHICAGO,COOK,60639,Illinois,United States
5334 W CULLOM AVE,CHICAGO,COOK,60641,Illinois,United States
7711 S KEATING AVE,CHICAGO,COOK,60652,Illinois,United States
3006 N NAGLE AVE,CHICAGO,COOK,60634,Illinois,United States
5815 N ELSTON AVE,CHICAGO,COOK,60646,Illinois,United States
1143 JACKSON ST,NORTH CHICAGO,LAKE,60064,Illinois,United States
1906 16TH ST,NORTH CHICAGO,LAKE,60064,Illinois,United States
2933 18TH PL,NORTH CHICAGO,LAKE,60064,Illinois,United States
VAMC BUILDING 135,NORTH CHICAGO,LAKE,60064,Illinois,United States
1722 GROVE AVE,NORTH CHICAGO,LAKE,60064,Illinois,United States
1725 JACKSON ST,NORTH CHICAGO,LAKE,60064,Illinois,United States
1137 JACKSON ST,NORTH CHICAGO,LAKE,60064,Illinois,United States
1811 SEYMOUR AVE,NORTH CHICAGO,LAKE,60064,Illinois,United States
3134 MARTIN LUTHER KING DR,NORTH CHICAGO,LAKE,60064,Illinois,United States
2413 KENNEDY DR,NORTH CHICAGO,LAKE,60064,Illinois,United States
1531 VICTORIA AVE,NORTH CHICAGO,LAKE,60064,Illinois,United States
1917 WRIGHT AVE,NORTH CHICAGO,LAKE,60064,Illinois,United States
816 11TH ST,NORTH CHICAGO,LAKE,60064,Illinois,United States
1114 AUDREY NIXON BLVD,NORTH CHICAGO,LAKE,60064,Illinois,United States
1911 GREENFIELD AVE,NORTH CHICAGO,LAKE,60064,Illinois,United States
2131 WALLACE AVE,NORTH CHICAGO,LAKE,60064,Illinois,United States
1923 GROVE AVE,NORTH CHICAGO,LAKE,60064,Illinois,United States
841 W 129TH PL,CHICAGO,COLES,60643,Illinois,United States
3612 W GRENSHAW,CHICAGO,WILL,60624,Illinois,United States
376 E 89TH ST,CHICAGO,CITY OF CHICAGO,60619,Illinois,United States
2315 E 100TH ST,CHICAGO,CITY OF CHICAGO,60617,Illinois,United States
9036 S ADA ST,CHICAGO,CITY OF CHICAGO,60620,Illinois,United States
7914 S GREEN ST,CHICAGO,CITY OF CHICAGO,60620,Illinois,United States
5235 W BELDEN ST,CHICAGO,CITY OF CHICAGO,60639,Illinois,United States
2816 W MARQUETTE RD,CHICAGO,CITY OF CHICAGO,60629,Illinois,United States
4250 W 63RD ST,CHICAGO,CITY OF CHICAGO,60629,Illinois,United States
1001 N LOREL AVE,CHICAGO,CITY OF CHICAGO,60651,Illinois,United States
8832 S THROOP ST,CHICAGO,CITY OF CHICAGO,60620,Illinois,United States
7842 S STEWART AVE APT 1F,CHICAGO,CITY OF CHICAGO,60620,Illinois,United States
2144 W SUPERIOR ST,CHICAGO,CITY OF CHICAGO,60612,Illinois,United States
7628 W FOSTER AVE # 30,CHICAGO,CITY OF CHICAGO,60656,Illinois,United States
9831 S UNIVERSITY AVE,CHICAGO,CITY OF CHICAGO,60628,Illinois,United States
4455 N LA CROSSE AVE,CHICAGO,CITY OF CHICAGO,60630,Illinois,United States
3030 W WALNUT ST FL 1,CHICAGO,CITY OF CHICAGO,60612,Illinois,United States
10558 S VERNON AVE,CHICAGO,CITY OF CHICAGO,60628,Illinois,United States
4818 W HENDERSON ST,CHICAGO,CITY OF CHICAGO,60641,Illinois,United States
2446 S PULASKI RD # 52,CHICAGO,CITY OF CHICAGO,60623,Illinois,United States
6324 S RHODES AVE,CHICAGO,CITY OF CHICAGO,60637,Illinois,United States
1743 W 38TH ST,CHICAGO,CITY OF CHICAGO,60609,Illinois,United States
1105 N LOCKWOOD AVE,CHICAGO,CITY OF CHICAGO,60651,Illinois,United States
8010 S INDIANA AVE,CHICAGO,CITY OF CHICAGO,60619,Illinois,United States
5831 S WESTERN AVE,CHICAGO,CITY OF CHICAGO,60636,Illinois,United States
2980 S ARCHER AVE,CHICAGO,CITY OF CHICAGO,60608,Illinois,United States
924 W 115TH ST,CHICAGO,CITY OF CHICAGO,60643,Illinois,United States
3411 W 55TH ST,CHICAGO,CITY OF CHICAGO,60632,Illinois,United States
6459 S ALBANY AVE,CHICAGO,CITY OF CHICAGO,60629,Illinois,United States
10873 S VINCENNES AVE,CHICAGO,CITY OF CHICAGO,60643,Illinois,United States
4958 S RACINE AVE APT 2,CHICAGO,CITY OF CHICAGO,60609,Illinois,United States
2824 N LINDER AVE,CHICAGO,CITY OF CHICAGO,60641,Illinois,United States
2718 W 59TH ST,CHICAGO,CITY OF CHICAGO,60629,Illinois,United States
3981 N MERRIMAC AVE,CHICAGO,CITY OF CHICAGO,60634,Illinois,United States
4120 W MAYPOLE AVE,CHICAGO,CITY OF CHICAGO,60624,Illinois,United States
711 W 129TH PL,CHICAGO,CITY OF CHICAGO,60628,Illinois,United States
7120 S CHRISTIANA AVE,CHICAGO,CITY OF CHICAGO,60629,Illinois,United States
3030 W WALNUT ST FL 2,CHICAGO,CITY OF CHICAGO,60612,Illinois,United States
2901 N MULLIGAN AVE,CHICAGO,COOK,60634,Illinois,United States
6223 S NATOMA AVE,CHICAGO,COOK,60638,Illinois,United States
4612 W 82ND ST,CHICAGO,COOK,60652,Illinois,United States
2606 N MOBILE AVE APT 1,CHICAGO,COOK,60639,Illinois,United States
4939 N MOZART ST,CHICAGO,COOK,60625,Illinois,United States
5811 S PAULINA ST,CHICAGO,COOK,60636,Illinois,United States
4250 N KIMBALL AVE,CHICAGO,COOK,60618,Illinois,United States
3349 W 62ND ST,CHICAGO,COOK,60629,Illinois,United States
3620 N NEW ENGLAND AVE,CHICAGO,COOK,60634,Illinois,United States
2416 N LOREL AVE,CHICAGO,COOK,60639,Illinois,United States
8501 S KOSTNER AVE,CHICAGO,COOK,60652,Illinois,United States
3600 S FRANCISCO AVE,CHICAGO,COOK,60632,Illinois,United States
1754 W DEVON AVE # 56,CHICAGO,COOK,60660,Illinois,United States
7025 S ARTESIAN AVE FL 2,CHICAGO,COOK,60629,Illinois,United States
326 N ARQUILLA DR,CHICAGO HTS,COOK,60411,Illinois,United States
5250 N CHRISTIANA AVE,CHICAGO,COOK,60625,Illinois,United States
6224 111TH ST,CHICAGO RIDGE,COOK,60415,Illinois,United States
13102 S CORLISS AVE,CHICAGO,COOK,60827,Illinois,United States
12217 S CARPENTER ST,CHICAGO,COOK,60643,Illinois,United States
7601 S PHILLIPS AVE,CHICAGO,COOK,60649,Illinois,United States
901 E 104TH ST APT 105A,CHICAGO,COOK,60628,Illinois,United States
3453 W BEACH AVE,CHICAGO,COOK,60651,Illinois,United States
699 WEST 8TH STREET,CHICAGO HEIGHTS,COOK,60411,Illinois,United States
1054 N KEDZIE AVE APT 1,CHICAGO,COOK,60651,Illinois,United States
11156 S HOYNE AVE,CHICAGO,COOK,60643,Illinois,United States
7759 S EAST END AVE,CHICAGO,COOK,60649,Illinois,United States
1401 S WABASH AVE,CHICAGO,COOK,60605,Illinois,United States
4622 W 87TH ST,CHICAGO,COOK,60652,Illinois,United States
5900 W WALTON ST FL 1ST,CHICAGO,COOK,60651,Illinois,United States
10110 S WOOD ST,CHICAGO,COOK,60643,Illinois,United States
202 S HALSTED ST,CHICAGO HTS,COOK,60411,Illinois,United States
3137 W 71ST ST,CHICAGO,COOK,60629,Illinois,United States
1321 ASHLAND AVE,CHICAGO HTS,COOK,60411,Illinois,United States
6559 S CLAREMONT AVE,CHICAGO,COOK,60636,Illinois,United States
1909 DIVISION ST,CHICAGO HTS,COOK,60411,Illinois,United States
12239 S MICHIGAN AVE,CHICAGO,COOK,60628,Illinois,United States
1318 W 95TH ST,CHICAGO,COOK,60643,Illinois,United States
7927 S MAPLEWOOD AVE,CHICAGO,COOK,60652,Illinois,United States
5125 S WOOD ST,CHICAGO,CITY OF CHICAGO,60609,Illinois,United States
10 S KEDZIE AVE,CHICAGO,CITY OF CHICAGO,60612,Illinois,United States
5110 S FRANCISCO AVE,CHICAGO,CITY OF CHICAGO,60632,Illinois,United States
4943 W CONGRESS PKWY FL 1,CHICAGO,CITY OF CHICAGO,60644,Illinois,United States
7502 N RIDGE BLVD APT E,CHICAGO,CITY OF CHICAGO,60645,Illinois,United States
8408 S RHODES AVE,CHICAGO,CITY OF CHICAGO,60619,Illinois,United States
4921 W GLADYS AVE FL 1,CHICAGO,CITY OF CHICAGO,60644,Illinois,United States
1723 W 35TH ST,CHICAGO,CITY OF CHICAGO,60609,Illinois,United States
6805 N SEELEY AVE,CHICAGO,CITY OF CHICAGO,60645,Illinois,United States
6100 W NORTH AVE # 6106,CHICAGO,CITY OF CHICAGO,60639,Illinois,United States
748 N LATROBE AVE,CHICAGO,CITY OF CHICAGO,60644,Illinois,United States
5411 W CRYSTAL ST,CHICAGO,CITY OF CHICAGO,60651,Illinois,United States
7219 S RICHMOND ST,CHICAGO,CITY OF CHICAGO,60629,Illinois,United States
6146 S RICHMOND ST,CHICAGO,CITY OF CHICAGO,60629,Illinois,United States
143 W 111TH PL,CHICAGO,CITY OF CHICAGO,60628,Illinois,United States
7328 S PERRY AVE,CHICAGO,CITY OF CHICAGO,60621,Illinois,United States
6512 S HALSTED ST,CHICAGO,CITY OF CHICAGO,60621,Illinois,United States
8639 S INDIANA AVE,CHICAGO,CITY OF CHICAGO,60619,Illinois,United States
7253 S WASHTENAW AVE APT 1R,CHICAGO,CITY OF CHICAGO,60629,Illinois,United States
8515 S STONY ISLAND AVE,CHICAGO,CITY OF CHICAGO,60617,Illinois,United States
944 N LEAMINGTON AVE,CHICAGO,CITY OF CHICAGO,60651,Illinois,United States
3801 W DIVERSEY AVE,CHICAGO,CITY OF CHICAGO,60647,Illinois,United States
8629 S CREGIER AVE,CHICAGO,CITY OF CHICAGO,60617,Illinois,United States
3149 S SHIELDS AVE,CHICAGO,CITY OF CHICAGO,60616,Illinois,United States
942 N SAINT LOUIS AVE,CHICAGO,CITY OF CHICAGO,60651,Illinois,United States
4250 W 81ST ST,CHICAGO,CITY OF CHICAGO,60652,Illinois,United States
1924 S SAINT LOUIS AVE,CHICAGO,CITY OF CHICAGO,60623,Illinois,United States
7954 S CALIFORNIA AVE,CHICAGO,CITY OF CHICAGO,60652,Illinois,United States
4225 N CENTRAL PARK AVE UNIT 2,CHICAGO,CITY OF CHICAGO,60618,Illinois,United States
2151 W ARMITAGE AVE,CHICAGO,CITY OF CHICAGO,60647,Illinois,United States
3165 S ARCHER AVE,CHICAGO,CITY OF CHICAGO,60608,Illinois,United States
8802 S EMERALD AVE,CHICAGO,CITY OF CHICAGO,60620,Illinois,United States
5815 W IRVING PARK RD,CHICAGO,CITY OF CHICAGO,60634,Illinois,United States
5030 S TRIPP AVE,CHICAGO,CITY OF CHICAGO,60632,Illinois,United States
2896 S ARCHER AVE,CHICAGO,CITY OF CHICAGO,60608,Illinois,United States
8008 S RICHMOND ST,CHICAGO,CITY OF CHICAGO,60652,Illinois,United States
2844 S KOMENSKY AVE,CHICAGO,CITY OF CHICAGO,60623,Illinois,United States
3001 S KILDARE AVE,CHICAGO,COOK,60623,Illinois,United States
8011 S MAPLEWOOD AVE,CHICAGO,COOK,60652,Illinois,United States
7643 S MAY ST APT 1,CHICAGO,COOK,60620,Illinois,United States
1645 CENTER AVE,CHICAGO HTS,COOK,60411,Illinois,United States
8151 S TRIPP AVE,CHICAGO,COOK,60652,Illinois,United States
7621 S EAST END AVE,CHICAGO,COOK,60649,Illinois,United States
2046 W BELMONT AVE,CHICAGO,COOK,60618,Illinois,United States
6842 W ARCHER AVE # 44,CHICAGO,COOK,60638,Illinois,United States
8538 S KARLOV AVE,CHICAGO,COOK,60652,Illinois,United States
6333 S ELLIS AVE,CHICAGO,COOK,60637,Illinois,United States
7721 S AVALON AVE,CHICAGO,COOK,60619,Illinois,United States
5547 S SAWYER AVE BSMT,CHICAGO,COOK,60629,Illinois,United States
9501 S KING DR,CHICAGO,COOK,60628,Illinois,United States
804 W MONTROSE AVE,CHICAGO,COOK,60613,Illinois,United States
1645 W FULLERTON AVE,CHICAGO,COOK,60614,Illinois,United States
4827 W CONGRESS PKWY,CHICAGO,COOK,60644,Illinois,United States
4831 S SPRINGFIELD AVE BSMT,CHICAGO,COOK,60632,Illinois,United States
1500 N LAWLER AVE,CHICAGO,COOK,60651,Illinois,United States
8921 S HALSTED ST,CHICAGO,COOK,60620,Illinois,United States
8426 S DREXEL AVE,CHICAGO,COOK,60619,Illinois,United States
8048 S MICHIGAN AVE,CHICAGO,COOK,60619,Illinois,United States
282 PLEASANT DR,CHICAGO HTS,COOK,60411,Illinois,United States
9408 S ADA ST,CHICAGO,COOK,60620,Illinois,United States
1644 VINCENNES AVE,CHICAGO HTS,COOK,60411,Illinois,United States
8948 S PARNELL AVE,CHICAGO,COOK,60620,Illinois,United States
4911 W WASHINGTON BLVD FL 1ST,CHICAGO,COOK,60644,Illinois,United States
8718 S DORCHESTER AVE,CHICAGO,COOK,60619,Illinois,United States
1333 W CHICAGO AVE,CHICAGO,COOK,60642,Illinois,United States
6832 S KING DR,CHICAGO,COOK,60637,Illinois,United States
2321 N MANGO AVE,CHICAGO,COOK,60639,Illinois,United States
10149 S YALE AVE,CHICAGO,COOK,60628,Illinois,United States
6512 S WESTERN AVE,CHICAGO,COOK,60636,Illinois,United States
1253 N CENTRAL AVE,CHICAGO,COOK,60651,Illinois,United States
2710 W LUNT AVE APT 106,CHICAGO,COOK,60645,Illinois,United States
6425 S TRIPP AVE,CHICAGO,COOK,60629,Illinois,United States
3033 N HAMLIN AVE,CHICAGO,COOK,60618,Illinois,United States
2847 S MILLARD AVE,CHICAGO,COOK,60623,Illinois,United States
5222 W BERTEAU AVE,CHICAGO,COOK,60641,Illinois,United States
2245 W ARTHUR AVE BSMT,CHICAGO,COOK,60645,Illinois,United States
5400 S ROCKWELL ST,CHICAGO,CITY OF CHICAGO,60632,Illinois,United States
4110 W MAYPOLE AVE,CHICAGO,CITY OF CHICAGO,60624,Illinois,United States
9253 S ELIZABETH ST,CHICAGO,CITY OF CHICAGO,60620,Illinois,United States
1423 S CENTRAL PARK AVE,CHICAGO,CITY OF CHICAGO,60623,Illinois,United States
3858 W WEST END AVE FL 2,CHICAGO,CITY OF CHICAGO,60624,Illinois,United States
5528 S SAWYER AVE FL 2ND,CHICAGO,CITY OF CHICAGO,60629,Illinois,United States
5142 S KEELER AVE,CHICAGO,CITY OF CHICAGO,60632,Illinois,United States
4545 S FRANCISCO AVE,CHICAGO,CITY OF CHICAGO,60632,Illinois,United States
3711 W 55TH ST,CHICAGO,CITY OF CHICAGO,60632,Illinois,United States
4142 W NELSON ST,CHICAGO,CITY OF CHICAGO,60641,Illinois,United States
2924 N MCVICKER AVE,CHICAGO,CITY OF CHICAGO,60634,Illinois,United States
5736 W HENDERSON ST,CHICAGO,CITY OF CHICAGO,60634,Illinois,United States
4908 N TROY ST APT 1,CHICAGO,CITY OF CHICAGO,60625,Illinois,United States
4924 W GEORGE ST,CHICAGO,CITY OF CHICAGO,60641,Illinois,United States
10344 S AVENUE G,CHICAGO,CITY OF CHICAGO,60617,Illinois,United States
1042 S MAYFIELD AVE,CHICAGO,CITY OF CHICAGO,60644,Illinois,United States
4111 W 82ND ST,CHICAGO,CITY OF CHICAGO,60652,Illinois,United States
919 N FAIRFIELD AVE # 1,CHICAGO,CITY OF CHICAGO,60622,Illinois,United States
4522 N ALBANY AVE,CHICAGO,CITY OF CHICAGO,60625,Illinois,United States
1710-18 S LOOMIS,CHICAGO,CITY OF CHICAGO,60608,Illinois,United States
3040 N GRESHAM AVE,CHICAGO,CITY OF CHICAGO,60618,Illinois,United States
2636 N WASHTENAW AVE,CHICAGO,CITY OF CHICAGO,60647,Illinois,United States
1726 N HARDING AVE,CHICAGO,CITY OF CHICAGO,60647,Illinois,United States
4816 N TRIPP AVE,CHICAGO,CITY OF CHICAGO,60630,Illinois,United States
3751 W 66TH PL,CHICAGO,CITY OF CHICAGO,60629,Illinois,United States
6042 N RICHMOND ST,CHICAGO,CITY OF CHICAGO,60659,Illinois,United States
4447 W FULLERTON AVE # 55,CHICAGO,CITY OF CHICAGO,60639,Illinois,United States
3232 W DIVISION ST,CHICAGO,CITY OF CHICAGO,60651,Illinois,United States
2957 N SPRINGFIELD AVE,CHICAGO,CITY OF CHICAGO,60618,Illinois,United States
6939 W ARMITAGE AVE,CHICAGO,CITY OF CHICAGO,60707,Illinois,United States
1800 W BALMORAL AVE,CHICAGO,CITY OF CHICAGO,60640,Illinois,United States
7225 S PRAIRIE AVE,CHICAGO,CITY OF CHICAGO,60619,Illinois,United States
3952 W OHIO ST,CHICAGO,CITY OF CHICAGO,60624,Illinois,United States
3001 W GRANVILLE AVE,CHICAGO,CITY OF CHICAGO,60659,Illinois,United States
2150 W RANDOLPH ST,CHICAGO,CITY OF CHICAGO,60612,Illinois,United States
9607 S DOBSON AVE,CHICAGO,CITY OF CHICAGO,60628,Illinois,United States
2510 N MANGO AVE,CHICAGO,COOK,60639,Illinois,United States
4900 W HENDERSON ST,CHICAGO,COOK,60641,Illinois,United States
5019 W ROSCOE ST # 1,CHICAGO,COOK,60641,Illinois,United States
4759 S KILDARE AVE,CHICAGO,COOK,60632,Illinois,United States
2502 W PERSHING RD,CHICAGO,COOK,60632,Illinois,United States
5813 W 64TH ST,CHICAGO,COOK,60638,Illinois,United States
2332 N KILPATRICK AVE,CHICAGO,COOK,60639,Illinois,United States
2316 N MEADE AVE,CHICAGO,COOK,60639,Illinois,United States
3158 S LAWNDALE AVE,CHICAGO,COOK,60623,Illinois,United States
2149 W 21ST PL,CHICAGO,COOK,60608,Illinois,United States
5930 S ALBANY AVE,CHICAGO,COOK,60629,Illinois,United States
4123 W 26TH ST,CHICAGO,COOK,60623,Illinois,United States
4742 N SAWYER AVE FL 2,CHICAGO,COOK,60625,Illinois,United States
2941 N AUSTIN AVE APT 1,CHICAGO,COOK,60634,Illinois,United States
4123 N MAPLEWOOD AVE,CHICAGO,COOK,60618,Illinois,United States
4519 N LAWNDALE AVE,CHICAGO,COOK,60625,Illinois,United States
2417 UNION AVE,CHICAGO HTS,COOK,60411,Illinois,United States
10156 E ESCANABA,CHICAGO,COOK,60617,Illinois,United States
1812 N KEYSTONE AVE BSMT,CHICAGO,COOK,60639,Illinois,United States
34 E 16TH ST,CHICAGO HTS,COOK,60411,Illinois,United States
8812 S RACINE AVE,CHICAGO,COOK,60620,Illinois,United States
10011 S RHODES AVE,CHICAGO,COOK,60628,Illinois,United States
4246 N DRAKE AVE,CHICAGO,COOK,60618,Illinois,United States
1510 W HIGHLAND AVE,CHICAGO,COOK,60660,Illinois,United States
1448 E 53RD ST,CHICAGO,COOK,60615,Illinois,United States
8823 S WABASH AVE,CHICAGO,COOK,60619,Illinois,United States
10126 S WESTERN AVE,CHICAGO,COOK,60643,Illinois,United States
9531 S JEFFERY AVE,CHICAGO,COOK,60617,Illinois,United States
6058 S FAIRFIELD AVE APT 2,CHICAGO,COOK,60629,Illinois,United States
8945 S THROOP ST,CHICAGO,COOK,60620,Illinois,United States
12608 S EMERALD AVE,CHICAGO,COOK,60628,Illinois,United States
1023 E 80TH ST,CHICAGO,COOK,60619,Illinois,United States
8912 S COMMERCIAL AVE APT 1,CHICAGO,COOK,60617,Illinois,United States
4301 S WABASH AVE,CHICAGO,COOK,60653,Illinois,United States
7842 S CREGIER AVE APT 1,CHICAGO,COOK,60649,Illinois,United States
10132 S MAY ST,CHICAGO,COOK,60643,Illinois,United States
321 S WABASH AVE,CHICAGO,COOK,60604,Illinois,United States
7456 N HARLEM AVE,CHICAGO,COOK,60631,Illinois,United States
3446 W 82ND PL,CHICAGO,CITY OF CHICAGO,60652,Illinois,United States
3605 W CERMAK RD APT 1,CHICAGO,CITY OF CHICAGO,60623,Illinois,United States
531 N ST LOUIS AVE,CHICAGO,CITY OF CHICAGO,60624,Illinois,United States
116 N HOYNE AVE # B,CHICAGO,CITY OF CHICAGO,60612,Illinois,United States
211 S KARLOV AVE,CHICAGO,CITY OF CHICAGO,60624,Illinois,United States
19 S HOYNE AVE APT A,CHICAGO,CITY OF CHICAGO,60612,Illinois,United States
8611 S WALLACE ST,CHICAGO,CITY OF CHICAGO,60620,Illinois,United States
3021 W MONTROSE AVE # 23,CHICAGO,CITY OF CHICAGO,60618,Illinois,United States
6531 N ROCKWELL ST,CHICAGO,CITY OF CHICAGO,60645,Illinois,United States
5932 W GUNNISON ST,CHICAGO,CITY OF CHICAGO,60630,Illinois,United States
7460 W ADDISON ST,CHICAGO,CITY OF CHICAGO,60634,Illinois,United States
10540 S EWING AVE,CHICAGO,CITY OF CHICAGO,60617,Illinois,United States
5240 W ADDISON ST,CHICAGO,CITY OF CHICAGO,60641,Illinois,United States
2523 N PARKSIDE AVE,CHICAGO,CITY OF CHICAGO,60639,Illinois,United States
2311 N KEATING AVE,CHICAGO,CITY OF CHICAGO,60639,Illinois,United States
4340 W ROSCOE ST,CHICAGO,CITY OF CHICAGO,60641,Illinois,United States
13528 S AVENUE K,CHICAGO,CITY OF CHICAGO,60633,Illinois,United States
3754 W 55TH ST,CHICAGO,CITY OF CHICAGO,60632,Illinois,United States
4535 S WOOD ST FL 1,CHICAGO,CITY OF CHICAGO,60609,Illinois,United States
3725 W MCLEAN AVE,CHICAGO,CITY OF CHICAGO,60647,Illinois,United States
1318 N LAWNDALE AVE,CHICAGO,CITY OF CHICAGO,60651,Illinois,United States
7223 S CALIFORNIA AVE,CHICAGO,CITY OF CHICAGO,60629,Illinois,United States
3821 W 63RD PL,CHICAGO,CITY OF CHICAGO,60629,Illinois,United States
8410 S KILBOURN AVE,CHICAGO,CITY OF CHICAGO,60652,Illinois,United States
3356 S ASHLAND AVE,CHICAGO,CITY OF CHICAGO,60608,Illinois,United States
3642 W 79TH PL,CHICAGO,CITY OF CHICAGO,60652,Illinois,United States
5931 S MULLIGAN AVE,CHICAGO,CITY OF CHICAGO,60638,Illinois,United States
5819 W IRVING PARK RD,CHICAGO,CITY OF CHICAGO,60634,Illinois,United States
2833 N MANGO AVE,CHICAGO,CITY OF CHICAGO,60634,Illinois,United States
5033 N KEELER AVE,CHICAGO,CITY OF CHICAGO,60630,Illinois,United States
2311 N AUSTIN AVE,CHICAGO,CITY OF CHICAGO,60639,Illinois,United States
6234 S KOLIN AVE,CHICAGO,CITY OF CHICAGO,60629,Illinois,United States
4118 N MAJOR AVE,CHICAGO,CITY OF CHICAGO,60634,Illinois,United States
5616 S KILDARE AVE,CHICAGO,CITY OF CHICAGO,60629,Illinois,United States
2117 N KEDVALE AVE,CHICAGO,CITY OF CHICAGO,60639,Illinois,United States
4512 W 59TH ST,CHICAGO,CITY OF CHICAGO,60629,Illinois,United States
342 S LARAMIE AVE,CHICAGO,COOK,60644,Illinois,United States
2616 W FULLERTON AVE,CHICAGO,COOK,60647,Illinois,United States
4726 N KILBOURN AVE,CHICAGO,COOK,60630,Illinois,United States
2650 W 87TH ST,CHICAGO,COOK,60652,Illinois,United States
5504 W FULLERTON AVE # 5510,CHICAGO,COOK,60639,Illinois,United States
4719 W HARRISON ST,CHICAGO,COOK,60644,Illinois,United States
48 N LONG AVE,CHICAGO,COOK,60644,Illinois,United States
6211 N NAGLE AVE,CHICAGO,COOK,60646,Illinois,United States
8134 S THROOP ST,CHICAGO,COOK,60620,Illinois,United States
3854 W DIVISION ST,CHICAGO,COOK,60651,Illinois,United States
2120 W LAWRENCE AVE,CHICAGO,COOK,60625,Illinois,United States
5528 S PEORIA ST,CHICAGO,COOK,60621,Illinois,United States
1001 W 129TH PL,CHICAGO,COOK,60643,Illinois,United States
1121 W 93RD ST,CHICAGO,COOK,60620,Illinois,United States
1634 W VAN BUREN ST,CHICAGO,COOK,60612,Illinois,United States
10355 S HALSTED ST # 57,CHICAGO,COOK,60628,Illinois,United States
8014 S FRANCISCO AVE,CHICAGO,COOK,60652,Illinois,United States
2917 N NATCHEZ AVE,CHICAGO,COOK,60634,Illinois,United States
4926 N CHRISTIANA AVE,CHICAGO,COOK,60625,Illinois,United States
2947 W HOWARD ST,CHICAGO,COOK,60645,Illinois,United States
1515 E 62ND ST APT 2F,CHICAGO,COOK,60637,Illinois,United States
6632 S WOOD ST,CHICAGO,COOK,60636,Illinois,United States
5910 W MONTROSE AVE,CHICAGO,COOK,60634,Illinois,United States
3346 E 91ST ST,CHICAGO,COOK,60617,Illinois,United States
3106 N BERNARD ST,CHICAGO,COOK,60618,Illinois,United States
10511 S MICHIGAN AVE UNIT B,CHICAGO,COOK,60628,Illinois,United States
9040 S VINCENNES AVE,CHICAGO,COOK,60620,Illinois,United States
6529 S KOSTNER AVE,CHICAGO,COOK,60629,Illinois,United States
5004 W MONROE ST,CHICAGO,COOK,60644,Illinois,United States
2345 W NORTH AVE # 47,CHICAGO,COOK,60647,Illinois,United States
6401 S PULASKI RD,CHICAGO,COOK,60629,Illinois,United States
7618 S KINGSTON AVE,CHICAGO,COOK,60649,Illinois,United States
4609 S SAINT LAWRENCE AVE,CHICAGO,COOK,60653,Illinois,United States
10748 S EDBROOKE AVE,CHICAGO,COOK,60628,Illinois,United States
8046 S WESTERN AVE # 50,CHICAGO,COOK,60620,Illinois,United States
4315 W 63RD ST,CHICAGO,COOK,60629,Illinois,United States
8155 S BLACKSTONE AVE,CHICAGO,COOK,60619,Illinois,United States
5945 W GRAND AVE,CHICAGO,COOK,60639,Illinois,United States
3006 W POLK ST,CHICAGO,CITY OF CHICAGO,60612,Illinois,United States
5051 W MONROE ST BSMT,CHICAGO,CITY OF CHICAGO,60644,Illinois,United States
854 E 79TH ST,CHICAGO,CITY OF CHICAGO,60619,Illinois,United States
10658 S GREEN BAY AVE,CHICAGO,CITY OF CHICAGO,60617,Illinois,United States
8034 S HERMITAGE AVE,CHICAGO,CITY OF CHICAGO,60620,Illinois,United States
5839 S PEORIA ST,CHICAGO,CITY OF CHICAGO,60621,Illinois,United States
2044B W BELMONT AVE,CHICAGO,CITY OF CHICAGO,60618,Illinois,United States
8851 S NORMAL AVE,CHICAGO,CITY OF CHICAGO,60620,Illinois,United States
7937 S DANTE AVE APT 1,CHICAGO,CITY OF CHICAGO,60619,Illinois,United States
4650 W MADISON ST,CHICAGO,CITY OF CHICAGO,60644,Illinois,United States
3930 W CONGRESS PKWY,CHICAGO,CITY OF CHICAGO,60624,Illinois,United States
3235 N CENTRAL AVE,CHICAGO,CITY OF CHICAGO,60634,Illinois,United States
2041 W 83RD ST,CHICAGO,CITY OF CHICAGO,60620,Illinois,United States
2445 S TRUMBULL AVE,CHICAGO,CITY OF CHICAGO,60623,Illinois,United States
5547 S SAWYER AVE,CHICAGO,CITY OF CHICAGO,60629,Illinois,United States
4624 S KOMENSKY AVE,CHICAGO,CITY OF CHICAGO,60632,Illinois,United States
6135 S KEDVALE AVE,CHICAGO,CITY OF CHICAGO,60629,Illinois,United States
7027 S WOOD ST,CHICAGO,CITY OF CHICAGO,60636,Illinois,United States
1707 N LINDER AVE,CHICAGO,CITY OF CHICAGO,60639,Illinois,United States
1018 W 115TH ST,CHICAGO,CITY OF CHICAGO,60643,Illinois,United States
7135 S WOLCOTT AVE,CHICAGO,CITY OF CHICAGO,60636,Illinois,United States
948 N LOREL AVE,CHICAGO,CITY OF CHICAGO,60651,Illinois,United States
5245 S HARDING AVE,CHICAGO,CITY OF CHICAGO,60632,Illinois,United States
3640 W WRIGHTWOOD AVE # 3644,CHICAGO,CITY OF CHICAGO,60647,Illinois,United States
5436 S SEELEY AVE,CHICAGO,CITY OF CHICAGO,60609,Illinois,United States
13338 S BRANDON AVE,CHICAGO,CITY OF CHICAGO,60633,Illinois,United States
5108 W DEMING PL,CHICAGO,CITY OF CHICAGO,60639,Illinois,United States
2960 W COLUMBUS AVE,CHICAGO,CITY OF CHICAGO,60652,Illinois,United States
1445 N LATROBE AVE,CHICAGO,CITY OF CHICAGO,60651,Illinois,United States
4453 S FRANCISCO AVE,CHICAGO,CITY OF CHICAGO,60632,Illinois,United States
5338 S LOOMIS BLVD,CHICAGO,CITY OF CHICAGO,60609,Illinois,United States
7411 S COTTAGE GROVE AVE,CHICAGO,CITY OF CHICAGO,60619,Illinois,United States
8517 S KNOX AVE,CHICAGO,CITY OF CHICAGO,60652,Illinois,United States
8222 S MORGAN ST,CHICAGO,CITY OF CHICAGO,60620,Illinois,United States
2601 W ARMITAGE AVE,CHICAGO,CITY OF CHICAGO,60647,Illinois,United States
5253 S EMERALD AVE,CHICAGO,CITY OF CHICAGO,60609,Illinois,United States
4719 N PULASKI RD,CHICAGO,CITY OF CHICAGO,60630,Illinois,United States
4832 S EVANS AVE,CHICAGO,CITY OF CHICAGO,60615,Illinois,United States
8204 S PERRY AVE,CHICAGO,COOK,60620,Illinois,United States
7614 S SAGINAW AVE # 2,CHICAGO,COOK,60649,Illinois,United States
11839 S MAPLEWOOD AVE,CHICAGO,COOK,60655,Illinois,United States
7537 S KENWOOD AVE,CHICAGO,COOK,60619,Illinois,United States
656 W 60TH ST,CHICAGO,COOK,60621,Illinois,United States
7220 S PRINCETON AVE,CHICAGO,COOK,60621,Illinois,United States
2615 E 76TH ST,CHICAGO,COOK,60649,Illinois,United States
3738 W 83RD PL,CHICAGO,COOK,60652,Illinois,United States
8236 S COTTAGE GROVE AVE,CHICAGO,COOK,60619,Illinois,United States
1851 W HARRISON ST,CHICAGO,COOK,60612,Illinois,United States
320 N HAMLIN AVE,CHICAGO,COOK,60624,Illinois,United States
401 E 111TH ST,CHICAGO,COOK,60628,Illinois,United States
1334 W 107TH ST,CHICAGO,COOK,60643,Illinois,United States
1951 W BERWYN AVE,CHICAGO,COOK,60640,Illinois,United States
2332 S KIRKLAND AVE,CHICAGO,COOK,60623,Illinois,United States
4425 N MAGNOLIA AVE,CHICAGO,COOK,60640,Illinois,United States
1019 DAMICO DR,CHICAGO HTS,COOK,60411,Illinois,United States
525 E BOWEN AVE APT 1,CHICAGO,COOK,60653,Illinois,United States
831 S HALSTED ST,CHICAGO HTS,COOK,60411,Illinois,United States
4840 S DREXEL BLVD APT 802,CHICAGO,COOK,60615,Illinois,United States
10523 S EBERHART AVE,CHICAGO,COOK,60628,Illinois,United States
706 E 89TH PL,CHICAGO,COOK,60619,Illinois,United States
4308 W MADISON ST # 2,CHICAGO,COOK,60624,Illinois,United States
922 193RD PL,CHICAGO HTS,COOK,60411,Illinois,United States
3415 W WALNUT ST FL 2ND,CHICAGO,COOK,60624,Illinois,United States
13309 S INDIANA AVE,CHICAGO,COOK,60827,Illinois,United States
2058 N PULASKI RD,CHICAGO,COOK,60639,Illinois,United States
8053 S DOBSON AVE,CHICAGO,COOK,60619,Illinois,United States
5904 S CALUMET AVE,CHICAGO,COOK,60637,Illinois,United States
2642 N JONES ST,CHICAGO,COOK,60647,Illinois,United States
5331 W NORTH AVE # 33,CHICAGO,COOK,60639,Illinois,United States
820 N MASSASOIT AVE,CHICAGO,COOK,60651,Illinois,United States
7548 S MAY ST,CHICAGO,COOK,60620,Illinois,United States
4432 W MADISON ST,CHICAGO,COOK,60624,Illinois,United States
3800 N MILWAUKEE AVE,CHICAGO,COOK,60641,Illinois,United States
7311 N WESTERN AVE # 13,CHICAGO,COOK,60645,Illinois,United States
2708 W PETERSON AVE,CHICAGO,COOK,60659,Illinois,United States
34 E 24TH ST,CHICAGO HTS,COOK,60411,Illinois,United States
1000 W 103RD ST,CHICAGO,CITY OF CHICAGO,60643,Illinois,United States
9612 S CHARLES ST,CHICAGO,CITY OF CHICAGO,60643,Illinois,United States
9111 S BISHOP ST,CHICAGO,CITY OF CHICAGO,60620,Illinois,United States
6231 S RACINE AVE APT 1,CHICAGO,CITY OF CHICAGO,60636,Illinois,United States
9416 S PARNELL AVE,CHICAGO,CITY OF CHICAGO,60620,Illinois,United States
7246 S TALMAN AVE,CHICAGO,CITY OF CHICAGO,60629,Illinois,United States
9633 S BEVERLY AVE,CHICAGO,CITY OF CHICAGO,60643,Illinois,United States
2034 W 22ND PL,CHICAGO,CITY OF CHICAGO,60608,Illinois,United States
7239 S DOBSON AVE,CHICAGO,CITY OF CHICAGO,60619,Illinois,United States
4118 W CULLERTON ST,CHICAGO,CITY OF CHICAGO,60623,Illinois,United States
2545 W DIVERSEY AVE,CHICAGO,CITY OF CHICAGO,60647,Illinois,United States
8142 S PEORIA ST FL 2,CHICAGO,CITY OF CHICAGO,60620,Illinois,United States
3310 S ARCHER AVE UNIT E,CHICAGO,CITY OF CHICAGO,60608,Illinois,United States
2712 N LARAMIE AVE,CHICAGO,CITY OF CHICAGO,60639,Illinois,United States
1934 E 79TH ST,CHICAGO,CITY OF CHICAGO,60649,Illinois,United States
7701 S CHAMPLAIN AVE,CHICAGO,CITY OF CHICAGO,60619,Illinois,United States
2321 W CULLERTON ST,CHICAGO,CITY OF CHICAGO,60608,Illinois,United States
2929 S HALSTED ST,CHICAGO,CITY OF CHICAGO,60608,Illinois,United States
6838 S WOOD ST,CHICAGO,CITY OF CHICAGO,60636,Illinois,United States
7457 S BENNETT AVE,CHICAGO,CITY OF CHICAGO,60649,Illinois,United States
10354 S RHODES AVE,CHICAGO,CITY OF CHICAGO,60628,Illinois,United States
7538 S HALSTED ST,CHICAGO,CITY OF CHICAGO,60620,Illinois,United States
5945 S SANGAMON ST,CHICAGO,CITY OF CHICAGO,60621,Illinois,United States
1049 E 73RD ST,CHICAGO,CITY OF CHICAGO,60619,Illinois,United States
9229 S MARSHFIELD AVE,CHICAGO,CITY OF CHICAGO,60620,Illinois,United States
2868 W 84TH ST,CHICAGO,CITY OF CHICAGO,60652,Illinois,United States
625 W 115TH ST,CHICAGO,CITY OF CHICAGO,60628,Illinois,United States
7206 S SANGAMON ST,CHICAGO,CITY OF CHICAGO,60621,Illinois,United States
7 E 119TH ST,CHICAGO,CITY OF CHICAGO,60628,Illinois,United States
3008 S KOMENSKY AVE,CHICAGO,CITY OF CHICAGO,60623,Illinois,United States
7231 S ROCKWELL ST,CHICAGO,CITY OF CHICAGO,60629,Illinois,United States
5034 S LAWNDALE AVE,CHICAGO,CITY OF CHICAGO,60632,Illinois,United States
10721 S WESTERN AVE,CHICAGO,CITY OF CHICAGO,60643,Illinois,United States
3652 N LINCOLN AVE,CHICAGO,CITY OF CHICAGO,60613,Illinois,United States
5951 W CHICAGO AVE,CHICAGO,CITY OF CHICAGO,60651,Illinois,United States
7759 S WABASH AVE,CHICAGO,CITY OF CHICAGO,60619,Illinois,United States
1339 W 109TH ST,CHICAGO,CITY OF CHICAGO,60643,Illinois,United States
8120 S ADA ST,CHICAGO,CITY OF CHICAGO,60620,Illinois,United States
7623 S MAY ST,CHICAGO,COOK,60620,Illinois,United States
2841 W WILCOX ST,CHICAGO,COOK,60612,Illinois,United States
405 W SUPERIOR ST,CHICAGO,COOK,60654,Illinois,United States
1715 W 58TH ST,CHICAGO,COOK,60636,Illinois,United States
5037 W ADAMS ST,CHICAGO,COOK,60644,Illinois,United States
5334 S ARCHER AVE,CHICAGO,COOK,60632,Illinois,United States
4423 W MONROE ST APT 1,CHICAGO,COOK,60624,Illinois,United States
1137 W 95TH ST,CHICAGO,COOK,60643,Illinois,United States
1929 W WILSON AVE,CHICAGO,COOK,60640,Illinois,United States
7925 S DOBSON AVE UNIT B,CHICAGO,COOK,60619,Illinois,United States
4524A S INDIANA AVE,CHICAGO,COOK,60653,Illinois,United States
3006 W POLK ST,CHICAGO,COOK,60612,Illinois,United States
5254 W CONGRESS PKWY,CHICAGO,COOK,60644,Illinois,United States
242 W 94TH ST,CHICAGO,COOK,60620,Illinois,United States
8132 S DORCHESTER AVE,CHICAGO,COOK,60619,Illinois,United States
807 N WESTERN AVE # 09,CHICAGO,COOK,60622,Illinois,United States
3483 W COLUMBUS AVE # 85,CHICAGO,COOK,60652,Illinois,United States
545 N MCCLURG CT UNIT 3505,CHICAGO,COOK,60611,Illinois,United States
3310 S ARCHER AVE UNIT B,CHICAGO,COOK,60608,Illinois,United States
3026 N KEDZIE AVE # 3030,CHICAGO,COOK,60618,Illinois,United States
826 S WESTERN AVE APT 3,CHICAGO,COOK,60612,Illinois,United States
1532 S RIDGEWAY AVE,CHICAGO,COOK,60623,Illinois,United States
2637 N MAJOR AVE,CHICAGO,COOK,60639,Illinois,United States
5100 W FOSTER AVE,CHICAGO,COOK,60630,Illinois,United States
4424 W VAN BUREN ST,CHICAGO,COOK,60624,Illinois,United States
2719 N NEWLAND AVE,CHICAGO,COOK,60707,Illinois,United States
209 E CULLERTON ST,CHICAGO,COOK,60616,Illinois,United States
9 W 21ST ST,CHICAGO HTS,COOK,60411,Illinois,United States
3351 N SOUTHPORT AVE APT 1,CHICAGO,COOK,60657,Illinois,United States
13027 S EBERHART AVE,CHICAGO,COOK,60827,Illinois,United States
8221 S PEORIA ST,CHICAGO,COOK,60620,Illinois,United States
1626 W THORNDALE AVE APT 1,CHICAGO,COOK,60660,Illinois,United States
11019 S HALSTED ST # 25,CHICAGO,COOK,60628,Illinois,United States
125 MILDRED LN,CHICAGO HTS,COOK,60411,Illinois,United States
14 E 119TH PL # 2,CHICAGO,COOK,60628,Illinois,United States
645 W 127TH ST,CHICAGO,COOK,60628,Illinois,United States
1450 ABERDEEN ST,CHICAGO HTS,COOK,60411,Illinois,United States
1524 S SPAULDING AVE FL 2ND,CHICAGO,COOK,60623,Illinois,United States
2808 W 85TH ST,CHICAGO,CITY OF CHICAGO,60652,Illinois,United States
7749 S CLYDE AVE FL 2ND,CHICAGO,CITY OF CHICAGO,60649,Illinois,United States
4412 W JACKSON BLVD,CHICAGO,CITY OF CHICAGO,60624,Illinois,United States
1431 W 111TH ST,CHICAGO,CITY OF CHICAGO,60643,Illinois,United States
5010 N SHERIDAN RD,CHICAGO,CITY OF CHICAGO,60640,Illinois,United States
5823 S KENNETH AVE,CHICAGO,CITY OF CHICAGO,60629,Illinois,United States
1703 E 87TH ST # 07,CHICAGO,CITY OF CHICAGO,60617,Illinois,United States
29 W 103RD PL,CHICAGO,CITY OF CHICAGO,60628,Illinois,United States
5326 S AUSTIN AVE,CHICAGO,CITY OF CHICAGO,60638,Illinois,United States
3115 S MAY ST,CHICAGO,CITY OF CHICAGO,60608,Illinois,United States
2464 N CLYBOURN AVE,CHICAGO,CITY OF CHICAGO,60614,Illinois,United States
11836 S WESTERN AVE,CHICAGO,CITY OF CHICAGO,60643,Illinois,United States
2899 S ARCHER AVE,CHICAGO,CITY OF CHICAGO,60608,Illinois,United States
5124 S RICHMOND ST,CHICAGO,CITY OF CHICAGO,60632,Illinois,United States
5231 S ARCHER AVE,CHICAGO,CITY OF CHICAGO,60632,Illinois,United States
6522 S YALE AVE,CHICAGO,CITY OF CHICAGO,60621,Illinois,United States
3741 N NEW ENGLAND AVE,CHICAGO,CITY OF CHICAGO,60634,Illinois,United States
1050 N KEDZIE AVE # 1ST,CHICAGO,CITY OF CHICAGO,60651,Illinois,United States
2446 W 46TH PL,CHICAGO,CITY OF CHICAGO,60632,Illinois,United States
2040 W 69TH ST,CHICAGO,CITY OF CHICAGO,60636,Illinois,United States
3022 N MILWAUKEE AVE,CHICAGO,CITY OF CHICAGO,60618,Illinois,United States
1218 W 50TH ST,CHICAGO,CITY OF CHICAGO,60609,Illinois,United States
1439 W 79TH ST,CHICAGO,CITY OF CHICAGO,60620,Illinois,United States
3919 W 47TH ST,CHICAGO,CITY OF CHICAGO,60632,Illinois,United States
7604 S CONSTANCE AVE,CHICAGO,CITY OF CHICAGO,60649,Illinois,United States
5055 W ERIE ST,CHICAGO,CITY OF CHICAGO,60644,Illinois,United States
1 E 113TH ST,CHICAGO,CITY OF CHICAGO,60628,Illinois,United States
814 W DIVERSEY PKWY,CHICAGO,CITY OF CHICAGO,60614,Illinois,United States
2751 W CORTEZ ST,CHICAGO,CITY OF CHICAGO,60622,Illinois,United States
2745 N LINCOLN AVE,CHICAGO,CITY OF CHICAGO,60614,Illinois,United States
2212 W ARMITAGE AVE,CHICAGO,CITY OF CHICAGO,60647,Illinois,United States
625 W 31ST ST,CHICAGO,CITY OF CHICAGO,60616,Illinois,United States
514 W 31ST ST,CHICAGO,CITY OF CHICAGO,60616,Illinois,United States
6066 W HIGGINS AVE,CHICAGO,CITY OF CHICAGO,60630,Illinois,United States
3325 N MONTICELLO AVE,CHICAGO,CITY OF CHICAGO,60618,Illinois,United States
2431 N MEADE AVE,CHICAGO,CITY OF CHICAGO,60639,Illinois,United States
5225 W BARRY AVE FL 1,CHICAGO,CITY OF CHICAGO,60641,Illinois,United States
2500 W BRADLEY PL,CHICAGO,COOK,60618,Illinois,United States
13104 S ESCANABA AVE,CHICAGO,COOK,60633,Illinois,United States
341 W 16TH ST,CHICAGO HTS,COOK,60411,Illinois,United States
3746 W 60TH PL,CHICAGO,COOK,60629,Illinois,United States
6228 S KOLMAR AVE,CHICAGO,COOK,60629,Illinois,United States
718 S INDEPENDENCE BLVD,CHICAGO,COOK,60624,Illinois,United States
22 N LOOMIS ST,CHICAGO,COOK,60607,Illinois,United States
8358 S KARLOV AVE,CHICAGO,COOK,60652,Illinois,United States
1417 N LECLAIRE AVE,CHICAGO,COOK,60651,Illinois,United States
1325 W 109TH PL,CHICAGO,COOK,60643,Illinois,United States
5225 N ASHLAND AVE APT 1A,CHICAGO,COOK,60640,Illinois,United States
7942 S TROY ST,CHICAGO,COOK,60652,Illinois,United States
13111 S CORLISS AVE,CHICAGO,COOK,60827,Illinois,United States
9700 S PERRY AVE,CHICAGO,COOK,60628,Illinois,United States
10623 S HALSTED ST # 27,CHICAGO,COOK,60628,Illinois,United States
6338 S BISHOP ST,CHICAGO,COOK,60636,Illinois,United States
1105 W 115TH ST,CHICAGO,COOK,60643,Illinois,United States
929 N LATROBE AVE,CHICAGO,COOK,60651,Illinois,United States
4740 W MAYPOLE AVE,CHICAGO,COOK,60644,Illinois,United States
10419 S PEORIA ST,CHICAGO,COOK,60643,Illinois,United States
5239 W MADISON ST # 43,CHICAGO,COOK,60644,Illinois,United States
1505 N PULASKI RD,CHICAGO,COOK,60651,Illinois,United States
4930 W DIVERSEY AVE,CHICAGO,COOK,60639,Illinois,United States
6037 S CHAMPLAIN AVE,CHICAGO,COOK,60637,Illinois,United States
11647 S BISHOP ST,CHICAGO,COOK,60643,Illinois,United States
7037 S STONY ISLAND AVE,CHICAGO,COOK,60649,Illinois,United States
2756 W MONTROSE AVE # 2758,CHICAGO,COOK,60618,Illinois,United States
7255 S SEELEY AVE,CHICAGO,COOK,60636,Illinois,United States
6226 N FAIRFIELD AVE,CHICAGO,COOK,60659,Illinois,United States
2721 W ARMITAGE AVE,CHICAGO,COOK,60647,Illinois,United States
160 N LA SALLE ST # N201,CHICAGO,COOK,60601,Illinois,United States
3143 N CENTRAL AVE # 45,CHICAGO,COOK,60634,Illinois,United States
4344 S WENTWORTH AVE,CHICAGO,COOK,60609,Illinois,United States
2804 W 85TH PL,CHICAGO,COOK,60652,Illinois,United States
6418 N TALMAN AVE,CHICAGO,COOK,60645,Illinois,United States
8042 S NORMAL AVE,CHICAGO,COOK,60620,Illinois,United States
7827 S MICHIGAN AVE,CHICAGO,COOK,60619,Illinois,United States
6131 S RACINE AVE # 2,CHICAGO,COOK,60636,Illinois,United States
2543 N LARAMIE AVE,CHICAGO,CITY OF CHICAGO,60639,Illinois,United States
3700 N SAINT LOUIS AVE,CHICAGO,CITY OF CHICAGO,60618,Illinois,United States
5423 W DIVERSEY AVE,CHICAGO,CITY OF CHICAGO,60639,Illinois,United States
3701 N KEELER AVE,CHICAGO,CITY OF CHICAGO,60641,Illinois,United States
3000 W MONTROSE AVE # 3006,CHICAGO,CITY OF CHICAGO,60618,Illinois,United States
2820 N NARRAGANSETT AVE,CHICAGO,CITY OF CHICAGO,60634,Illinois,United States
2415 W CHARLESTON ST,CHICAGO,CITY OF CHICAGO,60647,Illinois,United States
1345 N ROCKWELL ST,CHICAGO,CITY OF CHICAGO,60622,Illinois,United States
1701 W SUPERIOR ST,CHICAGO,CITY OF CHICAGO,60622,Illinois,United States
5401 N NEVA AVE,CHICAGO,CITY OF CHICAGO,60656,Illinois,United States
4735 S WESTERN BLVD,CHICAGO,CITY OF CHICAGO,60609,Illinois,United States
4954 N KENNETH AVE,CHICAGO,CITY OF CHICAGO,60630,Illinois,United States
1145 WEST WILSON,CHICAGO,CITY OF CHICAGO,60640,Illinois,United States
3731 N PULASKI RD,CHICAGO,CITY OF CHICAGO,60641,Illinois,United States
2819 N LOWELL AVE,CHICAGO,CITY OF CHICAGO,60641,Illinois,United States
3901 W 60TH ST,CHICAGO,CITY OF CHICAGO,60629,Illinois,United States
3254 S KEDVALE AVE,CHICAGO,CITY OF CHICAGO,60623,Illinois,United States
5114 S AUSTIN AVE,CHICAGO,CITY OF CHICAGO,60638,Illinois,United States
7510 N ASHLAND AVE,CHICAGO,CITY OF CHICAGO,60626,Illinois,United States
1814 S PAULINA ST,CHICAGO,CITY OF CHICAGO,60608,Illinois,United States
2953 N WISNER AVE,CHICAGO,CITY OF CHICAGO,60618,Illinois,United States
5522 W NEWPORT AVE,CHICAGO,CITY OF CHICAGO,60641,Illinois,United States
3718 W ADDISON ST,CHICAGO,CITY OF CHICAGO,60618,Illinois,United States
3050 E 92ND ST,CHICAGO,CITY OF CHICAGO,60617,Illinois,United States
2432 W DAKIN ST,CHICAGO,CITY OF CHICAGO,60618,Illinois,United States
2905 NORTH LEAVITT,CHICAGO,CITY OF CHICAGO,60618,Illinois,United States
5611 N CLARK ST # 21,CHICAGO,CITY OF CHICAGO,60660,Illinois,United States
2929 W 19TH ST,CHICAGO,CITY OF CHICAGO,60623,Illinois,United States
1312 S RACINE AVE,CHICAGO,CITY OF CHICAGO,60608,Illinois,United States
7 NORTH HOMAN AVE.,CHICAGO,CITY OF CHICAGO,60624,Illinois,United States
5116 W BELDEN ST,CHICAGO,CITY OF CHICAGO,60639,Illinois,United States
2629 S LAWNDALE AVE,CHICAGO,CITY OF CHICAGO,60623,Illinois,United States
5117 N LINCOLN AVE,CHICAGO,CITY OF CHICAGO,60625,Illinois,United States
316 N PULASKI RD,CHICAGO,CITY OF CHICAGO,60624,Illinois,United States
3247 W WARNER AVE,CHICAGO,CITY OF CHICAGO,60618,Illinois,United States
99 E 15TH ST,CHICAGO HTS,COOK,60411,Illinois,United States
8009 S DORCHESTER AVE,CHICAGO,COOK,60619,Illinois,United States
1807 S TROY ST,CHICAGO,COOK,60623,Illinois,United States
12030 S PARNELL AVE,CHICAGO,COOK,60628,Illinois,United States
8134 S VERNON AVE,CHICAGO,COOK,60619,Illinois,United States
6609 N FAIRFIELD AVE,CHICAGO,COOK,60645,Illinois,United States
1425 N DAYTON ST,CHICAGO,COOK,60642,Illinois,United States
2824 N MANGO AVE,CHICAGO,COOK,60634,Illinois,United States
939 N PULASKI RD # 41,CHICAGO,COOK,60651,Illinois,United States
825 W CHICAGO AVE,CHICAGO,COOK,60642,Illinois,United States
1122 W 111TH ST,CHICAGO,COOK,60643,Illinois,United States
5925 S CALIFORNIA AVE,CHICAGO,COOK,60629,Illinois,United States
9717 S WOODLAWN AVE,CHICAGO,COOK,60628,Illinois,United States
375 IRIS LN,CHICAGO HTS,COOK,60411,Illinois,United States
4874 N LINCOLN AVE,CHICAGO,COOK,60625,Illinois,United States
12604 S YALE AVE,CHICAGO,COOK,60628,Illinois,United States
740 N MILWAUKEE AVE,CHICAGO,COOK,60642,Illinois,United States
5746 S ELIZABETH ST APT 2,CHICAGO,COOK,60636,Illinois,United States
7610 S CHAMPLAIN AVE,CHICAGO,COOK,60619,Illinois,United States
3135 W 83RD PL,CHICAGO,COOK,60652,Illinois,United States
214 E 134TH ST,CHICAGO,COOK,60827,Illinois,United States
3640 S CALUMET AVE,CHICAGO,COOK,60653,Illinois,United States
3423 W CARROLL AVE,CHICAGO,COOK,60624,Illinois,United States
5911 N LINCOLN AVE,CHICAGO,COOK,60659,Illinois,United States
5807 N LINCOLN AVE,CHICAGO,COOK,60659,Illinois,United States
12154 S ELIZABETH ST,CHICAGO,COOK,60643,Illinois,United States
7835 S SPAULDING AVE,CHICAGO,COOK,60652,Illinois,United States
3300 W 55TH ST,CHICAGO,COOK,60632,Illinois,United States
1249 W 63RD ST,CHICAGO,COOK,60636,Illinois,United States
6511 S KILBOURN AVE,CHICAGO,COOK,60629,Illinois,United States
21 S MASON AVE,CHICAGO,COOK,60644,Illinois,United States
1144 W MADISON ST,CHICAGO,COOK,60607,Illinois,United States
6921 N RIDGE BLVD,CHICAGO,COOK,60645,Illinois,United States
10917 S WABASH AVE,CHICAGO,COOK,60628,Illinois,United States
3337 W CHICAGO AVE,CHICAGO,COOK,60651,Illinois,United States
617 W MARQUETTE RD # 1,CHICAGO,COOK,60621,Illinois,United States
450 E 83RD ST,CHICAGO,COOK,60619,Illinois,United States
1316 OTTO BLVD APT 1,CHICAGO HTS,COOK,60411,Illinois,United States
8509 S PULASKI RD # 11,CHICAGO,COOK,60652,Illinois,United States
3552 E 118TH ST,CHICAGO,CITY OF CHICAGO,60617,Illinois,United States
3104 N NATCHEZ AVE,CHICAGO,CITY OF CHICAGO,60634,Illinois,United States
4041 N PULASKI RD,CHICAGO,CITY OF CHICAGO,60641,Illinois,United States
5934 W DIVERSEY AVE,CHICAGO,CITY OF CHICAGO,60639,Illinois,United States
1636 N KIMBALL AVE # 38,CHICAGO,CITY OF CHICAGO,60647,Illinois,United States
6308 N FRANCISCO AVE,CHICAGO,CITY OF CHICAGO,60659,Illinois,United States
1347 WEST ERIE STREET,CHICAGO,CITY OF CHICAGO,60622,Illinois,United States
3038 W 59TH ST,CHICAGO,CITY OF CHICAGO,60629,Illinois,United States
8607 S COTTAGE GROVE AVE,CHICAGO,CITY OF CHICAGO,60619,Illinois,United States
8136 S ELIZABETH ST,CHICAGO,CITY OF CHICAGO,60620,Illinois,United States
1819 W 99TH ST,CHICAGO,CITY OF CHICAGO,60643,Illinois,United States
5600 S KING DR APT 2F,CHICAGO,CITY OF CHICAGO,60637,Illinois,United States
9648 S VANDERPOEL AVE APT 1,CHICAGO,CITY OF CHICAGO,60643,Illinois,United States
6950 S MAY ST,CHICAGO,CITY OF CHICAGO,60621,Illinois,United States
3250 W ADAMS ST,CHICAGO,CITY OF CHICAGO,60624,Illinois,United States
8168 S CORNELL AVE,CHICAGO,CITY OF CHICAGO,60617,Illinois,United States
2526 E 73RD ST,CHICAGO,CITY OF CHICAGO,60649,Illinois,United States
9441 S LEAVITT ST,CHICAGO,CITY OF CHICAGO,60643,Illinois,United States
8103 S CLAREMONT AVE,CHICAGO,CITY OF CHICAGO,60620,Illinois,United States
725 W 123RD ST,CHICAGO,CITY OF CHICAGO,60628,Illinois,United States
3638 W GRENSHAW ST FL 1,CHICAGO,CITY OF CHICAGO,60624,Illinois,United States
5210 S DORCHESTER AVE,CHICAGO,CITY OF CHICAGO,60615,Illinois,United States
10329 S BENSLEY AVE,CHICAGO,CITY OF CHICAGO,60617,Illinois,United States
4946 W JACKSON BLVD FL 1,CHICAGO,CITY OF CHICAGO,60644,Illinois,United States
2715 W 15TH PL,CHICAGO,CITY OF CHICAGO,60608,Illinois,United States
1111 N WELLS ST STE 200,CHICAGO,CITY OF CHICAGO,60610,Illinois,United States
1715 W 94TH ST,CHICAGO,CITY OF CHICAGO,60643,Illinois,United States
3829 N NEW ENGLAND AVE,CHICAGO,CITY OF CHICAGO,60634,Illinois,United States
3521 W 72ND ST,CHICAGO,CITY OF CHICAGO,60629,Illinois,United States
5042 N KILDARE AVE,CHICAGO,CITY OF CHICAGO,60630,Illinois,United States
4942 W 44TH ST,CHICAGO,CITY OF CHICAGO,60638,Illinois,United States
3247 W BRYN MAWR AVE,CHICAGO,CITY OF CHICAGO,60659,Illinois,United States
4547 N CENTRAL PARK AVE FL 2,CHICAGO,CITY OF CHICAGO,60625,Illinois,United States
4835 S LAPORTE AVE,CHICAGO,CITY OF CHICAGO,60638,Illinois,United States
5919 W WARWICK AVE,CHICAGO,CITY OF CHICAGO,60634,Illinois,United States
4939 S LA CROSSE AVE,CHICAGO,CITY OF CHICAGO,60638,Illinois,United States
1904 W MONTROSE AVE # 06,CHICAGO,COOK,60613,Illinois,United States
6502 S BISHOP ST,CHICAGO,COOK,60636,Illinois,United States
7154 S FRANCISCO AVE,CHICAGO,COOK,60629,Illinois,United States
5345 S CALIFORNIA AVE,CHICAGO,COOK,60632,Illinois,United States
1958 S SPAULDING AVE,CHICAGO,COOK,60623,Illinois,United States
238 W 10TH ST,CHICAGO HTS,COOK,60411,Illinois,United States
1376 W CARROLL AVE,CHICAGO,COOK,60607,Illinois,United States
11623 S THROOP ST,CHICAGO,COOK,60643,Illinois,United States
8055 S DREXEL AVE,CHICAGO,COOK,60619,Illinois,United States
401 W 95TH ST # 419,CHICAGO,COOK,60628,Illinois,United States
3416 W FULLERTON AVE,CHICAGO,COOK,60647,Illinois,United States
821 W EASTMAN ST,CHICAGO,COOK,60642,Illinois,United States
1064 N MILWAUKEE AVE APT 2W,CHICAGO,COOK,60642,Illinois,United States
8030 S MARQUETTE AVE,CHICAGO,COOK,60617,Illinois,United States
5240 S WELLS ST,CHICAGO,COOK,60609,Illinois,United States
7748 S GREEN ST,CHICAGO,COOK,60620,Illinois,United States
7826 S INDIANA AVE,CHICAGO,COOK,60619,Illinois,United States
2416 W VAN BUREN ST APT A,CHICAGO,COOK,60612,Illinois,United States
2525 SHERMAN AVE,NORTH CHICAGO,COOK,60064,Illinois,United States
10049 S CARPENTER ST,CHICAGO,COOK,60643,Illinois,United States
7712 S LOOMIS BLVD,CHICAGO,COOK,60620,Illinois,United States
419 E 44TH ST,CHICAGO,COOK,60653,Illinois,United States
8211 S ELIZABETH ST # 1,CHICAGO,COOK,60620,Illinois,United States
5052 W MONROE ST,CHICAGO,COOK,60644,Illinois,United States
3107 W DEVON AVE,CHICAGO,COOK,60659,Illinois,United States
5050 N BROADWAY ST STE 112,CHICAGO,COOK,60640,Illinois,United States
4833 N AVERS AVE,CHICAGO,COOK,60625,Illinois,United States
2845 W 71ST ST,CHICAGO,COOK,60629,Illinois,United States
8351 S MORGAN ST,CHICAGO,COOK,60620,Illinois,United States
8244 S PERRY AVE,CHICAGO,COOK,60620,Illinois,United States
10906 S MORGAN ST,CHICAGO,COOK,60643,Illinois,United States
8233 S PULASKI RD,CHICAGO,COOK,60652,Illinois,United States
1935 W 51ST ST,CHICAGO,COOK,60609,Illinois,United States
5160 S PULASKI RD,CHICAGO,COOK,60632,Illinois,United States
3511 S WASHTENAW AVE,CHICAGO,COOK,60632,Illinois,United States
5153 W LAKE ST,CHICAGO,COOK,60644,Illinois,United States
446 E ONTARIO ST STE 150,CHICAGO,COOK,60611,Illinois,United States
11123 S HALSTED ST # 25,CHICAGO,COOK,60628,Illinois,United States
5139 W SCHOOL ST,CHICAGO,CITY OF CHICAGO,60641,Illinois,United States
10900 S AVENUE G,CHICAGO,CITY OF CHICAGO,60617,Illinois,United States
2352 N RUTHERFORD AVE,CHICAGO,CITY OF CHICAGO,60707,Illinois,United States
5259 W ARGYLE ST,CHICAGO,CITY OF CHICAGO,60630,Illinois,United States
4055 W WELLINGTON AVE,CHICAGO,CITY OF CHICAGO,60641,Illinois,United States
5541 W HENDERSON ST,CHICAGO,CITY OF CHICAGO,60641,Illinois,United States
4321 S BERKELEY AVE,CHICAGO,CITY OF CHICAGO,60653,Illinois,United States
1960 W 13TH ST,CHICAGO,CITY OF CHICAGO,60608,Illinois,United States
1313 N CLAREMONT AVE,CHICAGO,CITY OF CHICAGO,60622,Illinois,United States
4404 W LELAND AVE,CHICAGO,CITY OF CHICAGO,60630,Illinois,United States
7246 N CLAREMONT AVE,CHICAGO,CITY OF CHICAGO,60645,Illinois,United States
5910 N HARLEM AVE,CHICAGO,CITY OF CHICAGO,60631,Illinois,United States
3220 N NEVA AVE,CHICAGO,CITY OF CHICAGO,60634,Illinois,United States
3410 N OCONTO AVE,CHICAGO,CITY OF CHICAGO,60634,Illinois,United States
1802 N FAIRFIELD AVE,CHICAGO,CITY OF CHICAGO,60647,Illinois,United States
4235 S KEDZIE AVE,CHICAGO,CITY OF CHICAGO,60632,Illinois,United States
6349 S KILPATRICK AVE,CHICAGO,CITY OF CHICAGO,60629,Illinois,United States
3337 W 66TH PL,CHICAGO,CITY OF CHICAGO,60629,Illinois,United States
4920 W FULLERTON AVE,CHICAGO,CITY OF CHICAGO,60639,Illinois,United States
5615 S SAINT LOUIS AVE,CHICAGO,CITY OF CHICAGO,60629,Illinois,United States
5002 S RACINE AVE,CHICAGO,CITY OF CHICAGO,60609,Illinois,United States
9747 S AVENUE M,CHICAGO,CITY OF CHICAGO,60617,Illinois,United States
7012 S TALMAN AVE,CHICAGO,CITY OF CHICAGO,60629,Illinois,United States
4833 W RACE AVE,CHICAGO,CITY OF CHICAGO,60644,Illinois,United States
12803 S HALSTED ST,CHICAGO,CITY OF CHICAGO,60628,Illinois,United States
2824 W WINONA,CHICAGO,CITY OF CHICAGO,60625,Illinois,United States
3155 W DIVERSEY AVE,CHICAGO,CITY OF CHICAGO,60647,Illinois,United States
8622 WEST CATALPA,CHICAGO,CITY OF CHICAGO,60656,Illinois,United States
919 NORTH LAVERGNE,CHICAGO,CITY OF CHICAGO,60651,Illinois,United States
5921 W. RICE,CHICAGO,CITY OF CHICAGO,60651,Illinois,United States
5523 S WABASH AVE,CHICAGO,CITY OF CHICAGO,60637,Illinois,United States
5221 S ASHLAND AVE,CHICAGO,CITY OF CHICAGO,60609,Illinois,United States
5033 W QUINCY ST,CHICAGO,CITY OF CHICAGO,60644,Illinois,United States
9930 S ABERDEEN ST,CHICAGO,CITY OF CHICAGO,60643,Illinois,United States
4100 N CALIFORNIA AVE,CHICAGO,CITY OF CHICAGO,60618,Illinois,United States
3246 WEST WASHINGTON,CHICAGO,CITY OF CHICAGO,60624,Illinois,United States
5341 W VAN BUREN ST,CHICAGO,COOK,60644,Illinois,United States
3450-56 W 79TH ST,CHICAGO,COOK,60652,Illinois,United States
8311 S DREXEL AVE APT 2F,CHICAGO,COOK,60619,Illinois,United States
1001 N MILWAUKEE AVE STE C100,CHICAGO,COOK,60642,Illinois,United States
4437 S ARTESIAN AVE FL 2ND,CHICAGO,COOK,60632,Illinois,United States
1903 N MILWAUKEE AVE # 05,CHICAGO,COOK,60647,Illinois,United States
1318 W 95TH ST,CHICAGO,COOK,60643,Illinois,United States
3473 W COLUMBUS AVE,CHICAGO,COOK,60652,Illinois,United States
7632 S CREGIER AVE,CHICAGO,COOK,60649,Illinois,United States
404 W 17TH ST,CHICAGO HTS,COOK,60411,Illinois,United States
2737 W PETERSON AVE,CHICAGO,COOK,60659,Illinois,United States
613 EMERALD AVE,CHICAGO HTS,COOK,60411,Illinois,United States
3357 W 83RD PL,CHICAGO,COOK,60652,Illinois,United States
6208 N BROADWAY ST # 6212,CHICAGO,COOK,60660,Illinois,United States
2150 W BOWLER ST,CHICAGO,COOK,60612,Illinois,United States
381 THOMAS DR,WEST CHICAGO,DUPAGE,60185,Illinois,United States
2403 ADELIA LN,WEST CHICAGO,DUPAGE,60185,Illinois,United States
29W544 WYNN AVE,WEST CHICAGO,DUPAGE,60185,Illinois,United States
920 N NELTNOR BLVD,WEST CHICAGO,DUPAGE,60185,Illinois,United States
1399 SNOWBERRY LN,WEST CHICAGO,DUPAGE,60185,Illinois,United States
851 PEARL RD,WEST CHICAGO,DUPAGE,60185,Illinois,United States
1871 N NELTNOR BLVD,WEST CHICAGO,DUPAGE,60185,Illinois,United States
332 CHURCH ST,WEST CHICAGO,DUPAGE,60185,Illinois,United States
3N506 IL ROUTE 59,WEST CHICAGO,DUPAGE,60185,Illinois,United States
434 INGALTON AVE,WEST CHICAGO,DUPAGE,60185,Illinois,United States
550 E WASHINGTON ST,WEST CHICAGO,DUPAGE,60185,Illinois,United States
204 CHURCH ST,WEST CHICAGO,DUPAGE,60185,Illinois,United States
2044 FRANCISCAN WAY,WEST CHICAGO,DUPAGE,60185,Illinois,United States
1650 N NATOMA AVE,CHICAGO,CITY OF CHICAGO,60707,Illinois,United States
3325 W 71ST ST,CHICAGO,CITY OF CHICAGO,60629,Illinois,United States
5016 W BARRY AVE,CHICAGO,CITY OF CHICAGO,60641,Illinois,United States
5320 W ROSCOE ST,CHICAGO,CITY OF CHICAGO,60641,Illinois,United States
3634 W PALMER ST,CHICAGO,CITY OF CHICAGO,60647,Illinois,United States
11115 S AVENUE B,CHICAGO,CITY OF CHICAGO,60617,Illinois,United States
8635 S KNOX AVE,CHICAGO,CITY OF CHICAGO,60652,Illinois,United States
5931 S SAWYER AVE,CHICAGO,CITY OF CHICAGO,60629,Illinois,United States
8631 S KEATING AVE,CHICAGO,CITY OF CHICAGO,60652,Illinois,United States
4810 S KEDVALE AVE,CHICAGO,CITY OF CHICAGO,60632,Illinois,United States
4225 N SPAULDING AVE,CHICAGO,CITY OF CHICAGO,60618,Illinois,United States
6059 S TRIPP AVE,CHICAGO,CITY OF CHICAGO,60629,Illinois,United States
5344 N NAGLE AVE,CHICAGO,CITY OF CHICAGO,60630,Illinois,United States
4934 W MONTANA ST,CHICAGO,CITY OF CHICAGO,60639,Illinois,United States
1521 N LEAMINGTON AVE,CHICAGO,CITY OF CHICAGO,60651,Illinois,United States
5538 S CALIFORNIA AVE,CHICAGO,CITY OF CHICAGO,60629,Illinois,United States
5040 S TALMAN AVE,CHICAGO,CITY OF CHICAGO,60632,Illinois,United States
3250 WEST FOSTER AVENUE,CHICAGO,CITY OF CHICAGO,60625,Illinois,United States
8128 S RACINE AVE,CHICAGO,CITY OF CHICAGO,60620,Illinois,United States
4040 WEST DIVISION,CHICAGO,CITY OF CHICAGO,60651,Illinois,United States
10001 SOUTH WOODLAWN AVENUE,CHICAGO,CITY OF CHICAGO,60628,Illinois,United States
710 WEST 65TH STREET BLDG Z,CHICAGO,CITY OF CHICAGO,60621,Illinois,United States
3330 N LOCKWOOD AVE,CHICAGO,CITY OF CHICAGO,60641,Illinois,United States
545 W 119TH ST,CHICAGO,CITY OF CHICAGO,60628,Illinois,United States
3222 W DIVISION ST,CHICAGO,CITY OF CHICAGO,60651,Illinois,United States
7954 S WESTERN AVE # 7958,CHICAGO,CITY OF CHICAGO,60620,Illinois,United States
7932 S WOLCOTT AVE,CHICAGO,CITY OF CHICAGO,60620,Illinois,United States
6523 S MAPLEWOOD AVE,CHICAGO,CITY OF CHICAGO,60629,Illinois,United States
4442 S WELLS ST,CHICAGO,CITY OF CHICAGO,60609,Illinois,United States
1011 N CENTRAL PARK AVE,CHICAGO,CITY OF CHICAGO,60651,Illinois,United States
7500 SOUTH PULASKI ROAD,CHICAGO,CITY OF CHICAGO,60652,Illinois,United States
3758 W 69TH PL,CHICAGO,CITY OF CHICAGO,60629,Illinois,United States
3847 N KEDZIE AVE,CHICAGO,CITY OF CHICAGO,60618,Illinois,United States
2652 W 47TH ST,CHICAGO,CITY OF CHICAGO,60632,Illinois,United States
2842 N MAJOR AVE,CHICAGO,CITY OF CHICAGO,60634,Illinois,United States
4450 N PARKSIDE AVE,CHICAGO,CITY OF CHICAGO,60630,Illinois,United States
6034 W FLETCHER ST,CHICAGO,CITY OF CHICAGO,60634,Illinois,United States
3619 N SAINT LOUIS AVE,CHICAGO,CITY OF CHICAGO,60618,Illinois,United States
3144 N LONG AVE,CHICAGO,CITY OF CHICAGO,60641,Illinois,United States
5743 S TRUMBULL AVE,CHICAGO,CITY OF CHICAGO,60629,Illinois,United States
10415 S AVENUE G,CHICAGO,CITY OF CHICAGO,60617,Illinois,United States
4737 S TRIPP AVE,CHICAGO,CITY OF CHICAGO,60632,Illinois,United States
4513 N DRAKE AVE,CHICAGO,CITY OF CHICAGO,60625,Illinois,United States
6307 W FLETCHER ST,CHICAGO,CITY OF CHICAGO,60634,Illinois,United States
4233 S PRINCETON AVE,CHICAGO,CITY OF CHICAGO,60609,Illinois,United States
4404 S KOMENSKY AVE,CHICAGO,CITY OF CHICAGO,60632,Illinois,United States
3023 N OAK PARK AVE,CHICAGO,CITY OF CHICAGO,60634,Illinois,United States
317 N MENARD AVE,CHICAGO,CITY OF CHICAGO,60644,Illinois,United States
3115 N AUSTIN AVE,CHICAGO,CITY OF CHICAGO,60634,Illinois,United States
5144 W MONTROSE AVE,CHICAGO,CITY OF CHICAGO,60641,Illinois,United States
6518 W DIVERSEY AVE,CHICAGO,CITY OF CHICAGO,60707,Illinois,United States
3326 N OCTAVIA AVE,CHICAGO,CITY OF CHICAGO,60634,Illinois,United States
6459 S MAPLEWOOD AVE,CHICAGO,CITY OF CHICAGO,60629,Illinois,United States
5318 S ASHLAND AVE APT 1,CHICAGO,CITY OF CHICAGO,60609,Illinois,United States
4926 W NELSON ST,CHICAGO,CITY OF CHICAGO,60641,Illinois,United States
4740 W PARKER AVE,CHICAGO,CITY OF CHICAGO,60639,Illinois,United States
3343 N MONTICELLO AVE,CHICAGO,CITY OF CHICAGO,60618,Illinois,United States
4838 N SAINT LOUIS AVE,CHICAGO,CITY OF CHICAGO,60625,Illinois,United States
6333 S KEELER AVE,CHICAGO,CITY OF CHICAGO,60629,Illinois,United States
4750 S KARLOV AVE UNIT 2,CHICAGO,CITY OF CHICAGO,60632,Illinois,United States
3462 N KEATING AVE,CHICAGO,CITY OF CHICAGO,60641,Illinois,United States
4700 S LAWNDALE AVE,CHICAGO,CITY OF CHICAGO,60632,Illinois,United States
7345 W BARRY AVE,CHICAGO,CITY OF CHICAGO,60707,Illinois,United States
3562 W WABANSIA AVE APT 1,CHICAGO,CITY OF CHICAGO,60647,Illinois,United States
6955 W BARRY AVE,CHICAGO,CITY OF CHICAGO,60634,Illinois,United States
2528 W FARRAGUT AVE APT 2E,CHICAGO,CITY OF CHICAGO,60625,Illinois,United States
7255 S CAMPBELL AVE,CHICAGO,CITY OF CHICAGO,60629,Illinois,United States
2906 N NEWCASTLE AVE,CHICAGO,CITY OF CHICAGO,60634,Illinois,United States
3431 N OAK PARK AVE,CHICAGO,CITY OF CHICAGO,60634,Illinois,United States
2914 W FARRAGUT AVE,CHICAGO,CITY OF CHICAGO,60625,Illinois,United States
524 MELROSE,CHICAGO,CITY OF CHICAGO,60657,Illinois,United States
4827 NORTH SHERIDAN #402,CHICAGO,CITY OF CHICAGO,60640,Illinois,United States
2150 W HARRISON ST,CHICAGO,CITY OF CHICAGO,60612,Illinois,United States
5164 W WABANSIA AVE,CHICAGO,CITY OF CHICAGO,60639,Illinois,United States
2249 WEST MARQUETTE,CHICAGO,CITY OF CHICAGO,60636,Illinois,United States
5810 NORTH CHRISTIANA,CHICAGO,CITY OF CHICAGO,60659,Illinois,United States
7016 S EMERALD AVE,CHICAGO,CITY OF CHICAGO,60621,Illinois,United States
2026 W 80TH PLACE,CHICAGO,CITY OF CHICAGO,60620,Illinois,United States
9800 SOUTH VANDERPOEL,CHICAGO,CITY OF CHICAGO,60643,Illinois,United States
2148 W MONTROSE AVE,CHICAGO,CITY OF CHICAGO,60618,Illinois,United States
500 WEST MONROE STREET,CHICAGO,CITY OF CHICAGO,60661,Illinois,United States
5522 NORTH MILWAUKEE AVENUE,CHICAGO,CITY OF CHICAGO,60630,Illinois,United States
1855 W 95TH ST,CHICAGO,CITY OF CHICAGO,60643,Illinois,United States
2501 W 71ST ST,CHICAGO,CITY OF CHICAGO,60629,Illinois,United States
7611 S CRANDON AVE,CHICAGO,CITY OF CHICAGO,60649,Illinois,United States
637 N SAWYER AVE,CHICAGO,CITY OF CHICAGO,60624,Illinois,United States
7734 PRAIRIE,CHICAGO,CITY OF CHICAGO,60619,Illinois,United States
10219 S LOWE AVE,CHICAGO,CITY OF CHICAGO,60628,Illinois,United States
3111 S WELLS ST,CHICAGO,CITY OF CHICAGO,60616,Illinois,United States
5168 W BLOOMINGDALE AVE,CHICAGO,CITY OF CHICAGO,60639,Illinois,United States
1101 N LOCKWOOD AVE,CHICAGO,CITY OF CHICAGO,60651,Illinois,United States
4356 S BERKELEY AVE,CHICAGO,CITY OF CHICAGO,60653,Illinois,United States
2252 N NAGLE AVE,CHICAGO,CITY OF CHICAGO,60707,Illinois,United States
1428 W SHERWIN AVE,CHICAGO,CITY OF CHICAGO,60626,Illinois,United States
12141 S PRINCETON AVE,CHICAGO,CITY OF CHICAGO,60628,Illinois,United States
1335 W 90TH ST,CHICAGO,CITY OF CHICAGO,60620,Illinois,United States
6435 S WOOD ST,CHICAGO,CITY OF CHICAGO,60636,Illinois,United States
8112 S BENNETT AVE,CHICAGO,CITY OF CHICAGO,60617,Illinois,United States
9756 S INDIANA AVE,CHICAGO,CITY OF CHICAGO,60628,Illinois,United States
7426 S MARYLAND AVE,CHICAGO,CITY OF CHICAGO,60619,Illinois,United States
7305 S INDIANA AVE,CHICAGO,CITY OF CHICAGO,60619,Illinois,United States
8027 S ADA ST,CHICAGO,CITY OF CHICAGO,60620,Illinois,United States
9106 S KINGSTON AVE,CHICAGO,CITY OF CHICAGO,60617,Illinois,United States
2558 W MARQUETTE RD APT 1,CHICAGO,CITY OF CHICAGO,60629,Illinois,United States
3652 S INDIANA AVE FL 1,CHICAGO,CITY OF CHICAGO,60653,Illinois,United States
1438 N LATROBE AVE,CHICAGO,CITY OF CHICAGO,60651,Illinois,United States
10515 S WALLACE ST,CHICAGO,CITY OF CHICAGO,60628,Illinois,United States
40 N DEARBORN ST,CHICAGO,CITY OF CHICAGO,60602,Illinois,United States
10135 S SANGAMON ST,CHICAGO,CITY OF CHICAGO,60643,Illinois,United States
1500 W ELMDALE AVE,CHICAGO,CITY OF CHICAGO,60660,Illinois,United States
2334 EAST 75TH STREET,CHICAGO,CITY OF CHICAGO,60649,Illinois,United States
1753 NORTH FERN COURT,CHICAGO,CITY OF CHICAGO,60614,Illinois,United States
6330 S. STONY IS.,CHICAGO,CITY OF CHICAGO,60637,Illinois,United States
126 EAST CHESTNUT STREET,CHICAGO,CITY OF CHICAGO,60611,Illinois,United States
8359 S KARLOV AVE,CHICAGO,CITY OF CHICAGO,60652,Illinois,United States
1633 NORTH HAMLIN,CHICAGO,CITY OF CHICAGO,60647,Illinois,United States
744 NORTH MONTICELLO AVENUE,CHICAGO,CITY OF CHICAGO,60624,Illinois,United States
7206 S EUCLID AVE,CHICAGO,CITY OF CHICAGO,60649,Illinois,United States
6614 S RICHMOND ST,CHICAGO,CITY OF CHICAGO,60629,Illinois,United States
6287 S ARCHER AVE # 95,CHICAGO,CITY OF CHICAGO,60638,Illinois,United States
2929 SOUTH WABASH,CHICAGO,CITY OF CHICAGO,60616,Illinois,United States
2603 W 80TH PL,CHICAGO,CITY OF CHICAGO,60652,Illinois,United States
4855 N KENMORE AVE # 1S,CHICAGO,CITY OF CHICAGO,60640,Illinois,United States
6515 S MOZART ST,CHICAGO,CITY OF CHICAGO,60629,Illinois,United States
8141 S HARVARD AVE,CHICAGO,CITY OF CHICAGO,60620,Illinois,United States
3403 W PIERCE AVE,CHICAGO,CITY OF CHICAGO,60651,Illinois,United States
6357 S CAMPBELL AVE FL 2,CHICAGO,CITY OF CHICAGO,60629,Illinois,United States
5044 S WABASH AVE,CHICAGO,CITY OF CHICAGO,60615,Illinois,United States
2732 E 76TH ST,CHICAGO,CITY OF CHICAGO,60649,Illinois,United States
4023 W CRYSTAL ST,CHICAGO,CITY OF CHICAGO,60651,Illinois,United States
4814 S CALUMET AVE FL 1,CHICAGO,CITY OF CHICAGO,60615,Illinois,United States
136 N HOYNE AVE APT B,CHICAGO,CITY OF CHICAGO,60612,Illinois,United States
1853 N NORDICA AVE,CHICAGO,CITY OF CHICAGO,60707,Illinois,United States
11619 S ARTESIAN AVE,CHICAGO,CITY OF CHICAGO,60655,Illinois,United States
7310 S VERNON AVE,CHICAGO,CITY OF CHICAGO,60619,Illinois,United States
1722 N AUSTIN AVE BSMT,CHICAGO,CITY OF CHICAGO,60639,Illinois,United States
1714 W 107TH ST,CHICAGO,CITY OF CHICAGO,60643,Illinois,United States
3411 W 5TH AVE BLDG C,CHICAGO,CITY OF CHICAGO,60624,Illinois,United States
2001 S MICHIGAN AVE STE 3,CHICAGO,CITY OF CHICAGO,60616,Illinois,United States
3415 W 13TH PL,CHICAGO,CITY OF CHICAGO,60623,Illinois,United States
5926 W MADISON ST # 30,CHICAGO,CITY OF CHICAGO,60644,Illinois,United States
1136 N HARDING AVE,CHICAGO,CITY OF CHICAGO,60651,Illinois,United States
5014 NORTH LINCOLN,CHICAGO,CITY OF CHICAGO,60625,Illinois,United States
6824 S. RIDGELAND,CHICAGO,CITY OF CHICAGO,60649,Illinois,United States
5900 W IOWA ST,CHICAGO,CITY OF CHICAGO,60651,Illinois,United States
1434 W. DIVISION STREET,CHICAGO,CITY OF CHICAGO,60622,Illinois,United States
1352 W. 99TH STREET,CHICAGO,CITY OF CHICAGO,60643,Illinois,United States
10420 S HOXIE AVE,CHICAGO,CITY OF CHICAGO,60617,Illinois,United States
4141 W. VAN BUREN,CHICAGO,CITY OF CHICAGO,60624,Illinois,United States
1845 E 79TH ST,CHICAGO,CITY OF CHICAGO,60649,Illinois,United States
975 E 132ND ST,CHICAGO,CITY OF CHICAGO,60827,Illinois,United States
1646 W 101ST PL FL 1,CHICAGO,CITY OF CHICAGO,60643,Illinois,United States
3117 N BERNARD ST,CHICAGO,CITY OF CHICAGO,60618,Illinois,United States
6441 N CENTRAL AVE,CHICAGO,CITY OF CHICAGO,60646,Illinois,United States
8725 S MORGAN ST,CHICAGO,CITY OF CHICAGO,60620,Illinois,United States
3305 N SPRINGFIELD AVE,CHICAGO,CITY OF CHICAGO,60618,Illinois,United States
5215 W WELLINGTON AVE,CHICAGO,CITY OF CHICAGO,60641,Illinois,United States
1059 N KEELER AVE,CHICAGO,CITY OF CHICAGO,60651,Illinois,United States
4734 N SAINT LOUIS AVE,CHICAGO,CITY OF CHICAGO,60625,Illinois,United States
4823 W BELDEN ST,CHICAGO,CITY OF CHICAGO,60639,Illinois,United States
3048 N KOLMAR AVE,CHICAGO,CITY OF CHICAGO,60641,Illinois,United States
6153 S KNOX AVE,CHICAGO,CITY OF CHICAGO,60629,Illinois,United States
6000 S KOMENSKY AVE,CHICAGO,CITY OF CHICAGO,60629,Illinois,United States
5545 S TRIPP AVE,CHICAGO,CITY OF CHICAGO,60629,Illinois,United States
3357 N KILBOURN AVE,CHICAGO,CITY OF CHICAGO,60641,Illinois,United States
5531 S ALBANY AVE,CHICAGO,CITY OF CHICAGO,60629,Illinois,United States
2207 N LAWLER AVE,CHICAGO,CITY OF CHICAGO,60639,Illinois,United States
3000 S SPRINGFIELD AVE FL 2,CHICAGO,CITY OF CHICAGO,60623,Illinois,United States
4926 W NELSON ST,CHICAGO,CITY OF CHICAGO,60641,Illinois,United States
3612 W 57TH PL,CHICAGO,CITY OF CHICAGO,60629,Illinois,United States
6235 S PARKSIDE AVE,CHICAGO,CITY OF CHICAGO,60638,Illinois,United States
11001 S AVENUE F,CHICAGO,CITY OF CHICAGO,60617,Illinois,United States
4203 S TALMAN AVE,CHICAGO,CITY OF CHICAGO,60632,Illinois,United States
10222 S AVENUE L,CHICAGO,CITY OF CHICAGO,60617,Illinois,United States
3446 W FULLERTON AVE,CHICAGO,CITY OF CHICAGO,60647,Illinois,United States
5215 S HAMLIN AVE,CHICAGO,CITY OF CHICAGO,60632,Illinois,United States
6272 N CICERO AVE,CHICAGO,CITY OF CHICAGO,60646,Illinois,United States
2654 N MONITOR AVE,CHICAGO,CITY OF CHICAGO,60639,Illinois,United States
6022 S SACRAMENTO AVE,CHICAGO,CITY OF CHICAGO,60629,Illinois,United States
10505 S AVENUE N APT 2,CHICAGO,CITY OF CHICAGO,60617,Illinois,United States
4740 N HARDING AVE # 1F,CHICAGO,CITY OF CHICAGO,60625,Illinois,United States
2826 W 40TH PL,CHICAGO,CITY OF CHICAGO,60632,Illinois,United States
943 W 18TH ST,CHICAGO,CITY OF CHICAGO,60608,Illinois,United States
5118 S LA CROSSE AVE,CHICAGO,CITY OF CHICAGO,60638,Illinois,United States
3427 W 59TH ST,CHICAGO,CITY OF CHICAGO,60629,Illinois,United States
5724 S TRIPP AVE,CHICAGO,CITY OF CHICAGO,60629,Illinois,United States
3107 N KOLMAR AVE APT 1,CHICAGO,CITY OF CHICAGO,60641,Illinois,United States
3823 W 62ND PL,CHICAGO,CITY OF CHICAGO,60629,Illinois,United States
2644 W 21ST ST,CHICAGO,CITY OF CHICAGO,60608,Illinois,United States
3904 W 64TH ST,CHICAGO,CITY OF CHICAGO,60629,Illinois,United States
4726 N ALBANY AVE,CHICAGO,CITY OF CHICAGO,60625,Illinois,United States
3447 W 59TH PL,CHICAGO,CITY OF CHICAGO,60629,Illinois,United States
5724 W HENDERSON ST,CHICAGO,CITY OF CHICAGO,60634,Illinois,United States
4958 S RACINE AVE,CHICAGO,CITY OF CHICAGO,60609,Illinois,United States
2850 S DRAKE AVE,CHICAGO,CITY OF CHICAGO,60623,Illinois,United States
10317 S WESTERN AVE,CHICAGO,CITY OF CHICAGO,60643,Illinois,United States
8210 S EBERHART AVE,CHICAGO,CITY OF CHICAGO,60619,Illinois,United States
325 E 107TH ST,CHICAGO,CITY OF CHICAGO,60628,Illinois,United States
7601 S VERNON AVE,CHICAGO,CITY OF CHICAGO,60619,Illinois,United States
8111 S STEWART AVE,CHICAGO,CITY OF CHICAGO,60620,Illinois,United States
1114 N LARAMIE AVE FL 2,CHICAGO,CITY OF CHICAGO,60651,Illinois,United States
4129 W CERMAK RD FL 1,CHICAGO,CITY OF CHICAGO,60623,Illinois,United States
2813 W 82ND ST,CHICAGO,CITY OF CHICAGO,60652,Illinois,United States
7227 S CLAREMONT AVE,CHICAGO,CITY OF CHICAGO,60636,Illinois,United States
5332 W ADDISON ST # 34,CHICAGO,CITY OF CHICAGO,60641,Illinois,United States
1300 E 75TH ST,CHICAGO,CITY OF CHICAGO,60619,Illinois,United States
3065 E CHELTENHAM PL,CHICAGO,CITY OF CHICAGO,60649,Illinois,United States
1861 W 95TH ST,CHICAGO,CITY OF CHICAGO,60643,Illinois,United States
8757 S MORGAN ST,CHICAGO,CITY OF CHICAGO,60620,Illinois,United States
1000 N MONITOR AVE BSMT,CHICAGO,CITY OF CHICAGO,60651,Illinois,United States
3524 W 72ND PL,CHICAGO,CITY OF CHICAGO,60629,Illinois,United States
2916 W WARREN BLVD FL 1ST,CHICAGO,CITY OF CHICAGO,60612,Illinois,United States
6904 S OAKLEY AVE,CHICAGO,CITY OF CHICAGO,60636,Illinois,United States
6749 S CHAMPLAIN AVE FL 2,CHICAGO,CITY OF CHICAGO,60637,Illinois,United States
7707 S HONORE ST,CHICAGO,CITY OF CHICAGO,60620,Illinois,United States
8560 S RHODES AVE,CHICAGO,CITY OF CHICAGO,60619,Illinois,United States
9017 S DOBSON AVE,CHICAGO,CITY OF CHICAGO,60619,Illinois,United States
4808 S DREXEL BLVD APT G,CHICAGO,CITY OF CHICAGO,60615,Illinois,United States
6323 S TROY ST,CHICAGO,CITY OF CHICAGO,60629,Illinois,United States
4429 S INDIANA AVE,CHICAGO,CITY OF CHICAGO,60653,Illinois,United States
7719 S ALBANY AVE,CHICAGO,CITY OF CHICAGO,60652,Illinois,United States
7419 S COTTAGE GROVE AVE,CHICAGO,CITY OF CHICAGO,60619,Illinois,United States
5307 W DIVERSEY AVE,CHICAGO,CITY OF CHICAGO,60639,Illinois,United States
5221 S ASHLAND AVE FL 2,CHICAGO,CITY OF CHICAGO,60609,Illinois,United States
8405 S MARSHFIELD AVE,CHICAGO,CITY OF CHICAGO,60620,Illinois,United States
4014 W CHICAGO AVE,CHICAGO,CITY OF CHICAGO,60651,Illinois,United States
1146 S CALIFORNIA AVE,CHICAGO,CITY OF CHICAGO,60612,Illinois,United States
3630 N LONG AVE,CHICAGO,CITY OF CHICAGO,60641,Illinois,United States
2357 N NORMANDY AVE,CHICAGO,CITY OF CHICAGO,60707,Illinois,United States
3444 W DIVERSEY AVE,CHICAGO,CITY OF CHICAGO,60647,Illinois,United States
1919 WEST CULLERTON,CHICAGO,CITY OF CHICAGO,60608,Illinois,United States
10224 S MORGAN ST,CHICAGO,CITY OF CHICAGO,60643,Illinois,United States
129 N MENARD AVE,CHICAGO,CITY OF CHICAGO,60644,Illinois,United States
1800 NORTH HUMBOLDT PARK BLVD.,CHICAGO,CITY OF CHICAGO,60647,Illinois,United States
11326 S PEORIA ST,CHICAGO,CITY OF CHICAGO,60643,Illinois,United States
7209 S WINCHESTER AVE,CHICAGO,CITY OF CHICAGO,60636,Illinois,United States
8051 S WABASH AVE,CHICAGO,CITY OF CHICAGO,60619,Illinois,United States
1800 S LAWNDALE AVE,CHICAGO,CITY OF CHICAGO,60623,Illinois,United States
7331 S SANGAMON ST,CHICAGO,CITY OF CHICAGO,60621,Illinois,United States
9906 S SANGAMON ST,CHICAGO,CITY OF CHICAGO,60643,Illinois,United States
400 E RANDOLPH ST FL 6B,CHICAGO,CITY OF CHICAGO,60601,Illinois,United States
1006 S MASON AVE,CHICAGO,CITY OF CHICAGO,60644,Illinois,United States
5645 W WASHINGTON BLVD APT 2S,CHICAGO,CITY OF CHICAGO,60644,Illinois,United States
11471 S CHURCH ST,CHICAGO,CITY OF CHICAGO,60643,Illinois,United States
956 N LAWNDALE AVE REAR,CHICAGO,CITY OF CHICAGO,60651,Illinois,United States
7809 S LANGLEY AVE,CHICAGO,CITY OF CHICAGO,60619,Illinois,United States
7615 S SANGAMON ST FL 2,CHICAGO,CITY OF CHICAGO,60620,Illinois,United States
1810 N MULLIGAN AVE,CHICAGO,CITY OF CHICAGO,60639,Illinois,United States
3418 W CHICAGO AVE FL 2,CHICAGO,CITY OF CHICAGO,60651,Illinois,United States
8120 S KIMBARK AVE,CHICAGO,CITY OF CHICAGO,60619,Illinois,United States
7954 S LOWE AVE,CHICAGO,CITY OF CHICAGO,60620,Illinois,United States
1520 E 72ND PL,CHICAGO,CITY OF CHICAGO,60619,Illinois,United States
4908 N DAMEN AVE,CHICAGO,CITY OF CHICAGO,60625,Illinois,United States
8049 S PAXTON AVE,CHICAGO,CITY OF CHICAGO,60617,Illinois,United States
2033 N NEWLAND AVE,CHICAGO,CITY OF CHICAGO,60707,Illinois,United States
1503 W DEVON AVE,CHICAGO,CITY OF CHICAGO,60660,Illinois,United States
951 N PARKSIDE AVE,CHICAGO,CITY OF CHICAGO,60651,Illinois,United States
8452 S HERMITAGE AVE,CHICAGO,CITY OF CHICAGO,60620,Illinois,United States
1864 E 80TH ST,CHICAGO,CITY OF CHICAGO,60617,Illinois,United States
7249 S STEWART AVE,CHICAGO,CITY OF CHICAGO,60621,Illinois,United States
9746 S BRENNAN AVE,CHICAGO,CITY OF CHICAGO,60617,Illinois,United States
1059 N LAVERGNE AVE,CHICAGO,CITY OF CHICAGO,60651,Illinois,United States
7934 S THROOP ST APT 1,CHICAGO,CITY OF CHICAGO,60620,Illinois,United States
29 S PARKSIDE AVE FL 2,CHICAGO,CITY OF CHICAGO,60644,Illinois,United States
7554 S CONSTANCE AVE,CHICAGO,CITY OF CHICAGO,60649,Illinois,United States
7146 S ASHLAND AVE # 48,CHICAGO,CITY OF CHICAGO,60636,Illinois,United States
9624 S PARNELL AVE,CHICAGO,CITY OF CHICAGO,60628,Illinois,United States
1624 W HIGHLAND AVE # 1E,CHICAGO,CITY OF CHICAGO,60660,Illinois,United States
9409 S SAINT LAWRENCE AVE,CHICAGO,CITY OF CHICAGO,60619,Illinois,United States
10410 S SANGAMON ST,CHICAGO,CITY OF CHICAGO,60643,Illinois,United States
6635 S ROCKWELL ST,CHICAGO,CITY OF CHICAGO,60629,Illinois,United States
5838 W CHICAGO AVE,CHICAGO,CITY OF CHICAGO,60651,Illinois,United States
3016 W POLK ST FL 2ND,CHICAGO,CITY OF CHICAGO,60612,Illinois,United States
11439 S MICHIGAN AVE,CHICAGO,CITY OF CHICAGO,60628,Illinois,United States
4248 N DRAKE AVE,CHICAGO,CITY OF CHICAGO,60618,Illinois,United States
4051 W CERMAK RD,CHICAGO,CITY OF CHICAGO,60623,Illinois,United States
12456 S MICHIGAN AVE,CHICAGO,CITY OF CHICAGO,60628,Illinois,United States
9348 S EBERHART AVE,CHICAGO,CITY OF CHICAGO,60619,Illinois,United States
5419 W CORTEZ ST,CHICAGO,CITY OF CHICAGO,60651,Illinois,United States
7134 S HONORE ST,CHICAGO,CITY OF CHICAGO,60636,Illinois,United States
2323 E 100TH ST,CHICAGO,CITY OF CHICAGO,60617,Illinois,United States
7726 S OGLESBY AVE,CHICAGO,CITY OF CHICAGO,60649,Illinois,United States
5348 W GLADYS AVE,CHICAGO,CITY OF CHICAGO,60644,Illinois,United States
6442 S FAIRFIELD AVE,CHICAGO,CITY OF CHICAGO,60629,Illinois,United States
1005 W VERMONT AVE,CHICAGO,CITY OF CHICAGO,60643,Illinois,United States
8715 S LUELLA AVE,CHICAGO,CITY OF CHICAGO,60617,Illinois,United States
568 N LARAMIE AVE,CHICAGO,CITY OF CHICAGO,60644,Illinois,United States
6826 S PARNELL AVE,CHICAGO,CITY OF CHICAGO,60621,Illinois,United States
2338 W MORSE AVE APT 2B,CHICAGO,CITY OF CHICAGO,60645,Illinois,United States
38 N LATROBE AVE,CHICAGO,CITY OF CHICAGO,60644,Illinois,United States
2217 N HARLEM AVE APT 1E,CHICAGO,CITY OF CHICAGO,60707,Illinois,United States
6949 S TALMAN AVE,CHICAGO,CITY OF CHICAGO,60629,Illinois,United States
259 W 106TH PL,CHICAGO,CITY OF CHICAGO,60628,Illinois,United States
6740 N OLIPHANT AVE,CHICAGO,CITY OF CHICAGO,60631,Illinois,United States
6516 S STEWART AVE,CHICAGO,CITY OF CHICAGO,60621,Illinois,United States
7609 S PAXTON AVE,CHICAGO,CITY OF CHICAGO,60649,Illinois,United States
4416 W WEST END AVE FL 1,CHICAGO,CITY OF CHICAGO,60624,Illinois,United States
935 N KARLOV AVE,CHICAGO,CITY OF CHICAGO,60651,Illinois,United States
5519 S WOLCOTT AVE,CHICAGO,CITY OF CHICAGO,60636,Illinois,United States
8300 S WOLCOTT AVE,CHICAGO,CITY OF CHICAGO,60620,Illinois,United States
5425 W HADDON AVE,CHICAGO,CITY OF CHICAGO,60651,Illinois,United States
7337 S CRANDON AVE,CHICAGO,CITY OF CHICAGO,60649,Illinois,United States
3857 W GRENSHAW ST,CHICAGO,CITY OF CHICAGO,60624,Illinois,United States
1054 NORTH KARLOV,CHICAGO,CITY OF CHICAGO,60651,Illinois,United States
514 E 75TH ST,CHICAGO,CITY OF CHICAGO,60619,Illinois,United States
7901 S ELLIS AVE # 2,CHICAGO,CITY OF CHICAGO,60619,Illinois,United States
7307 S MARYLAND AVE,CHICAGO,CITY OF CHICAGO,60619,Illinois,United States
10832 S PEORIA ST,CHICAGO,CITY OF CHICAGO,60643,Illinois,United States
1647 N NARRAGANSETT AVE,CHICAGO,CITY OF CHICAGO,60639,Illinois,United States
3855 N SEELEY AVE,CHICAGO,CITY OF CHICAGO,60618,Illinois,United States
8334 S MARQUETTE AVE,CHICAGO,CITY OF CHICAGO,60617,Illinois,United States
1139 W 79TH ST,CHICAGO,CITY OF CHICAGO,60620,Illinois,United States
2656 W 71ST ST,CHICAGO,CITY OF CHICAGO,60629,Illinois,United States
552 N CENTRAL AVE,CHICAGO,CITY OF CHICAGO,60644,Illinois,United States
700 N MAYFIELD AVE FL 1,CHICAGO,CITY OF CHICAGO,60644,Illinois,United States
7822 S EBERHART AVE,CHICAGO,CITY OF CHICAGO,60619,Illinois,United States
1913 S HAMLIN AVE,CHICAGO,CITY OF CHICAGO,60623,Illinois,United States
7609 S LOWE AVE FL 1,CHICAGO,CITY OF CHICAGO,60620,Illinois,United States
5044 W SUPERIOR ST,CHICAGO,CITY OF CHICAGO,60644,Illinois,United States
461 E 111TH ST # 465,CHICAGO,CITY OF CHICAGO,60628,Illinois,United States
243 N MAYFIELD AVE,CHICAGO,CITY OF CHICAGO,60644,Illinois,United States
2941 W 71ST ST,CHICAGO,CITY OF CHICAGO,60629,Illinois,United States
7416 S KING DR,CHICAGO,CITY OF CHICAGO,60619,Illinois,United States
121 N WOLCOTT AVE APT 2S,CHICAGO,CITY OF CHICAGO,60612,Illinois,United States
843 W 103RD ST # 47,CHICAGO,CITY OF CHICAGO,60643,Illinois,United States
4117 W CRESTLINE ST,CHICAGO,CITY OF CHICAGO,60652,Illinois,United States
9135 S EMERALD AVE,CHICAGO,CITY OF CHICAGO,60620,Illinois,United States
7404 S CLAREMONT AVE,CHICAGO,CITY OF CHICAGO,60636,Illinois,United States
116 E 113TH ST # 130,CHICAGO,CITY OF CHICAGO,60628,Illinois,United States
4545 N KEDZIE AVE,CHICAGO,CITY OF CHICAGO,60625,Illinois,United States
5123 W ADAMS ST APT 2,CHICAGO,CITY OF CHICAGO,60644,Illinois,United States
119 W 104TH PL,CHICAGO,CITY OF CHICAGO,60628,Illinois,United States
800 S KARLOV AVE,CHICAGO,CITY OF CHICAGO,60624,Illinois,United States
4044 W MAYPOLE AVE,CHICAGO,CITY OF CHICAGO,60624,Illinois,United States
2550 W ADDISON ST STE A14,CHICAGO,CITY OF CHICAGO,60618,Illinois,United States
12839 S LOWE AVE,CHICAGO,CITY OF CHICAGO,60628,Illinois,United States
8358 S KILDARE AVE,CHICAGO,CITY OF CHICAGO,60652,Illinois,United States
2717 W TOUHY AVE,CHICAGO,CITY OF CHICAGO,60645,Illinois,United States
12134 S LA SALLE ST,CHICAGO,CITY OF CHICAGO,60628,Illinois,United States
2050 E 93RD ST,CHICAGO,CITY OF CHICAGO,60617,Illinois,United States
9313 S BURNSIDE AVE,CHICAGO,CITY OF CHICAGO,60619,Illinois,United States
11000 S NORMAL AVE,CHICAGO,CITY OF CHICAGO,60628,Illinois,United States
2525 W PETERSON AVE,CHICAGO,CITY OF CHICAGO,60659,Illinois,United States
2000 W WARREN BLVD,CHICAGO,CITY OF CHICAGO,60612,Illinois,United States
5221 W WARWICK AVE,CHICAGO,CITY OF CHICAGO,60641,Illinois,United States
8316 S PRAIRIE AVE,CHICAGO,CITY OF CHICAGO,60619,Illinois,United States
11045 S WENTWORTH AVE,CHICAGO,CITY OF CHICAGO,60628,Illinois,United States
6420 S COTTAGE GROVE AVE # 22,CHICAGO,CITY OF CHICAGO,60637,Illinois,United States
6642 S TALMAN AVE,CHICAGO,CITY OF CHICAGO,60629,Illinois,United States
6200 W BERENICE AVE,CHICAGO,CITY OF CHICAGO,60634,Illinois,United States
10018 S SANGAMON ST,CHICAGO,CITY OF CHICAGO,60643,Illinois,United States
1420 W AUGUSTA BLVD,CHICAGO,CITY OF CHICAGO,60642,Illinois,United States
6204 S CLAREMONT AVE,CHICAGO,CITY OF CHICAGO,60636,Illinois,United States
7005 S CAMPBELL AVE,CHICAGO,CITY OF CHICAGO,60629,Illinois,United States
3255 W ALTGELD ST,CHICAGO,CITY OF CHICAGO,60647,Illinois,United States
348 E 90TH ST,CHICAGO,CITY OF CHICAGO,60619,Illinois,United States
3438 W 79TH ST,CHICAGO,CITY OF CHICAGO,60652,Illinois,United States
5019 W BLOOMINGDALE AVE,CHICAGO,CITY OF CHICAGO,60639,Illinois,United States
7911 S LOOMIS BLVD,CHICAGO,CITY OF CHICAGO,60620,Illinois,United States
5242 W NORTH AVE,CHICAGO,CITY OF CHICAGO,60639,Illinois,United States
8636 S WOLCOTT AVE,CHICAGO,CITY OF CHICAGO,60620,Illinois,United States
5618 S MORGAN ST FL 2,CHICAGO,CITY OF CHICAGO,60621,Illinois,United States
8829 S CRANDON AVE,CHICAGO,CITY OF CHICAGO,60617,Illinois,United States
7241 S EBERHART AVE,CHICAGO,CITY OF CHICAGO,60619,Illinois,United States
9614 S UNION AVE,CHICAGO,CITY OF CHICAGO,60628,Illinois,United States
128 N LARAMIE AVE,CHICAGO,CITY OF CHICAGO,60644,Illinois,United States
4356 S BERKELEY AVE UNIT 3S,CHICAGO,CITY OF CHICAGO,60653,Illinois,United States
3728 W 79TH ST,CHICAGO,CITY OF CHICAGO,60652,Illinois,United States
10229 S MORGAN ST,CHICAGO,CITY OF CHICAGO,60643,Illinois,United States
10533 S PEORIA ST,CHICAGO,CITY OF CHICAGO,60643,Illinois,United States
5246 W BLOOMINGDALE AVE,CHICAGO,CITY OF CHICAGO,60639,Illinois,United States
1655 W SCHOOL ST,CHICAGO,CITY OF CHICAGO,60657,Illinois,United States
405 E 89TH PL,CHICAGO,CITY OF CHICAGO,60619,Illinois,United States
5522 S RACINE AVE,CHICAGO,CITY OF CHICAGO,60636,Illinois,United States
6819 S EVANS AVE APT 2ND,CHICAGO,CITY OF CHICAGO,60637,Illinois,United States
4159 N LARAMIE AVE,CHICAGO,CITY OF CHICAGO,60641,Illinois,United States
2857 W 55TH ST,CHICAGO,CITY OF CHICAGO,60632,Illinois,United States
7134 S WOOD ST,CHICAGO,CITY OF CHICAGO,60636,Illinois,United States
125 S MAYFIELD AVE,CHICAGO,CITY OF CHICAGO,60644,Illinois,United States
1221 E 93RD ST,CHICAGO,CITY OF CHICAGO,60619,Illinois,United States
5759 S UNION AVE,CHICAGO,CITY OF CHICAGO,60621,Illinois,United States
5142 W BELMONT AVE,CHICAGO,CITY OF CHICAGO,60641,Illinois,United States
6655 W ARCHER AVE,CHICAGO,CITY OF CHICAGO,60638,Illinois,United States
6203 W MONTROSE AVE # 05,CHICAGO,CITY OF CHICAGO,60634,Illinois,United States
7008 N WESTERN AVE,CHICAGO,CITY OF CHICAGO,60645,Illinois,United States
11117 S BISHOP ST FL 1,CHICAGO,CITY OF CHICAGO,60643,Illinois,United States
4135 W ARMITAGE AVE,CHICAGO,CITY OF CHICAGO,60639,Illinois,United States
441 E ONTARIO ST,CHICAGO,CITY OF CHICAGO,60611,Illinois,United States
8050 S HONORE ST,CHICAGO,CITY OF CHICAGO,60620,Illinois,United States
1255 E 93RD ST,CHICAGO,CITY OF CHICAGO,60619,Illinois,United States
6447 S TRIPP AVE,CHICAGO,CITY OF CHICAGO,60629,Illinois,United States
5429 S HOMAN AVE,CHICAGO,CITY OF CHICAGO,60632,Illinois,United States
6852 S KARLOV AVE,CHICAGO,CITY OF CHICAGO,60629,Illinois,United States
3044 W FULLERTON AVE,CHICAGO,CITY OF CHICAGO,60647,Illinois,United States
3345 N KEATING AVE APT 1,CHICAGO,CITY OF CHICAGO,60641,Illinois,United States
4144 W 59TH ST,CHICAGO,CITY OF CHICAGO,60629,Illinois,United States
4029 N CENTRAL PARK AVE,CHICAGO,CITY OF CHICAGO,60618,Illinois,United States
2033 N LAVERGNE AVE,CHICAGO,CITY OF CHICAGO,60639,Illinois,United States
5839 W BERENICE AVE APT 1,CHICAGO,CITY OF CHICAGO,60634,Illinois,United States
4911 W WELLINGTON AVE,CHICAGO,CITY OF CHICAGO,60641,Illinois,United States
3901 W 65TH PL,CHICAGO,CITY OF CHICAGO,60629,Illinois,United States
5145 S KOLIN AVE,CHICAGO,CITY OF CHICAGO,60632,Illinois,United States
4924 S KEELER AVE,CHICAGO,CITY OF CHICAGO,60632,Illinois,United States
5548 S TRIPP AVE,CHICAGO,CITY OF CHICAGO,60629,Illinois,United States
2018 N HAMLIN AVE,CHICAGO,CITY OF CHICAGO,60647,Illinois,United States
5950 S KOLIN AVE,CHICAGO,CITY OF CHICAGO,60629,Illinois,United States
4535 W WRIGHTWOOD AVE,CHICAGO,CITY OF CHICAGO,60639,Illinois,United States
3402 W 61ST ST,CHICAGO,CITY OF CHICAGO,60629,Illinois,United States
6806 W ARMITAGE AVE,CHICAGO,CITY OF CHICAGO,60707,Illinois,United States
10534 S AVENUE N,CHICAGO,CITY OF CHICAGO,60617,Illinois,United States
6256 N HOYNE AVE UNIT C,CHICAGO,CITY OF CHICAGO,60659,Illinois,United States
9636 S UNIVERSITY AVE,CHICAGO,CITY OF CHICAGO,60628,Illinois,United States
1443 W DEVON AVE,CHICAGO,CITY OF CHICAGO,60660,Illinois,United States
5776 N LINCOLN AVE # 78,CHICAGO,CITY OF CHICAGO,60659,Illinois,United States
640 E 90TH PL,CHICAGO,CITY OF CHICAGO,60619,Illinois,United States
256 N KEDZIE AVE,CHICAGO,CITY OF CHICAGO,60612,Illinois,United States
4421 N CLARK ST,CHICAGO,CITY OF CHICAGO,60640,Illinois,United States
555 W 115TH ST,CHICAGO,CITY OF CHICAGO,60628,Illinois,United States
9249 S CALUMET AVE,CHICAGO,CITY OF CHICAGO,60619,Illinois,United States
2038 W 80TH PL,CHICAGO,CITY OF CHICAGO,60620,Illinois,United States
8615 S KENNETH AVE,CHICAGO,CITY OF CHICAGO,60652,Illinois,United States
4110 W PETERSON AVE,CHICAGO,CITY OF CHICAGO,60646,Illinois,United States
5743 S FRANCISCO AVE,CHICAGO,CITY OF CHICAGO,60629,Illinois,United States
8015 S ABERDEEN ST,CHICAGO,CITY OF CHICAGO,60620,Illinois,United States
922 N TRUMBULL AVE,CHICAGO,CITY OF CHICAGO,60651,Illinois,United States
639 E 88TH PL,CHICAGO,CITY OF CHICAGO,60619,Illinois,United States
1167 E 63RD ST,CHICAGO,CITY OF CHICAGO,60637,Illinois,United States
5650 W LELAND AVE,CHICAGO,CITY OF CHICAGO,60630,Illinois,United States
5605 S ALBANY AVE,CHICAGO,CITY OF CHICAGO,60629,Illinois,United States
4021 W 25TH ST,CHICAGO,CITY OF CHICAGO,60623,Illinois,United States
5226 W OAKDALE AVE,CHICAGO,CITY OF CHICAGO,60641,Illinois,United States
215 E 118TH ST,CHICAGO,CITY OF CHICAGO,60628,Illinois,United States
8434 S CARPENTER ST,CHICAGO,CITY OF CHICAGO,60620,Illinois,United States
7807 S KEDZIE AVE,CHICAGO,CITY OF CHICAGO,60652,Illinois,United States
1714 W 94TH ST,CHICAGO,CITY OF CHICAGO,60643,Illinois,United States
3435 W 55TH ST,CHICAGO,CITY OF CHICAGO,60632,Illinois,United States
4854 S VINCENNES AVE APT 201,CHICAGO,CITY OF CHICAGO,60615,Illinois,United States
1155 W 81ST ST,CHICAGO,CITY OF CHICAGO,60620,Illinois,United States
4748 S ASHLAND AVE,CHICAGO,CITY OF CHICAGO,60609,Illinois,United States
6048 S ASHLAND AVE,CHICAGO,CITY OF CHICAGO,60636,Illinois,United States
2632 E 74TH ST,CHICAGO,CITY OF CHICAGO,60649,Illinois,United States
3517 W 75TH PL,CHICAGO,CITY OF CHICAGO,60652,Illinois,United States
6420 S STEWART AVE APT 1B,CHICAGO,CITY OF CHICAGO,60621,Illinois,United States
3696 N MILWAUKEE AVE,CHICAGO,CITY OF CHICAGO,60641,Illinois,United States
934 N LARAMIE AVE,CHICAGO,CITY OF CHICAGO,60651,Illinois,United States
9812 S CARPENTER ST,CHICAGO,CITY OF CHICAGO,60643,Illinois,United States
6353 S BISHOP ST,CHICAGO,CITY OF CHICAGO,60636,Illinois,United States
817 N HAMLIN AVE,CHICAGO,CITY OF CHICAGO,60651,Illinois,United States
241 W 110TH PL,CHICAGO,CITY OF CHICAGO,60628,Illinois,United States
4408 W DIVERSEY AVE,CHICAGO,CITY OF CHICAGO,60639,Illinois,United States
505 N SAINT CLAIR ST,CHICAGO,CITY OF CHICAGO,60611,Illinois,United States
4739 W WASHINGTON BLVD FL 1,CHICAGO,CITY OF CHICAGO,60644,Illinois,United States
1400 N LAKE SHORE DR,CHICAGO,CITY OF CHICAGO,60610,Illinois,United States
1323 W 98TH PL,CHICAGO,CITY OF CHICAGO,60643,Illinois,United States
2600 E 83RD ST,CHICAGO,CITY OF CHICAGO,60617,Illinois,United States
2930 N CAMPBELL AVE,CHICAGO,CITY OF CHICAGO,60618,Illinois,United States
8420 S CRANDON AVE,CHICAGO,CITY OF CHICAGO,60617,Illinois,United States
3743 W 82ND ST,CHICAGO,CITY OF CHICAGO,60652,Illinois,United States
360 E 61ST ST # 362,CHICAGO,CITY OF CHICAGO,60637,Illinois,United States
7634 S ASHLAND AVE,CHICAGO,CITY OF CHICAGO,60620,Illinois,United States
1856 W 69TH ST # 58,CHICAGO,CITY OF CHICAGO,60636,Illinois,United States
7225 W TOUHY AVE,CHICAGO,CITY OF CHICAGO,60631,Illinois,United States
7652 W TOUHY AVE,CHICAGO,CITY OF CHICAGO,60631,Illinois,United States
3340 W BRYN MAWR AVE # 42,CHICAGO,CITY OF CHICAGO,60659,Illinois,United States
9409 S BURNSIDE AVE,CHICAGO,CITY OF CHICAGO,60619,Illinois,United States
5939 W IRVING PARK RD,CHICAGO,CITY OF CHICAGO,60634,Illinois,United States
9522 S VINCENNES AVE # 24,CHICAGO,CITY OF CHICAGO,60643,Illinois,United States
7716 S CONSTANCE AVE,CHICAGO,CITY OF CHICAGO,60649,Illinois,United States
26 E 79TH ST,CHICAGO,CITY OF CHICAGO,60619,Illinois,United States
1525 W WILSON AVE,CHICAGO,CITY OF CHICAGO,60640,Illinois,United States
11559 S SANGAMON ST,CHICAGO,CITY OF CHICAGO,60643,Illinois,United States
956 N MASSASOIT AVE,CHICAGO,CITY OF CHICAGO,60651,Illinois,United States
5750 S ELIZABETH ST,CHICAGO,CITY OF CHICAGO,60636,Illinois,United States
744 E 103RD PL,CHICAGO,CITY OF CHICAGO,60628,Illinois,United States
2449 W PETERSON AVE,CHICAGO,CITY OF CHICAGO,60659,Illinois,United States
2841 S ARCHER AVE,CHICAGO,CITY OF CHICAGO,60608,Illinois,United States
5636 N PULASKI RD,CHICAGO,CITY OF CHICAGO,60646,Illinois,United States
5480 S KENWOOD AVE,CHICAGO,CITY OF CHICAGO,60615,Illinois,United States
2944 W FLOURNOY ST # 2,CHICAGO,CITY OF CHICAGO,60612,Illinois,United States
1401 E 79TH ST # 09,CHICAGO,CITY OF CHICAGO,60619,Illinois,United States
1729 E 74TH ST,CHICAGO,CITY OF CHICAGO,60649,Illinois,United States
1455 W 63RD ST,CHICAGO,CITY OF CHICAGO,60636,Illinois,United States
8131 S OGLESBY AVE,CHICAGO,CITY OF CHICAGO,60617,Illinois,United States
3656 W 111TH ST,CHICAGO,CITY OF CHICAGO,60655,Illinois,United States
6921 S STONY ISLAND AVE,CHICAGO,CITY OF CHICAGO,60649,Illinois,United States
1304 S HALSTED ST,CHICAGO,CITY OF CHICAGO,60607,Illinois,United States
2351B S WENTWORTH AVE FL 2,CHICAGO,CITY OF CHICAGO,60616,Illinois,United States
8933 S JEFFERY BLVD,CHICAGO,CITY OF CHICAGO,60617,Illinois,United States
612 N PINE AVE,CHICAGO,CITY OF CHICAGO,60644,Illinois,United States
3915 S KEDZIE AVE,CHICAGO,CITY OF CHICAGO,60632,Illinois,United States
3430 N TRIPP AVE,CHICAGO,CITY OF CHICAGO,60641,Illinois,United States
7651 S CARPENTER ST,CHICAGO,CITY OF CHICAGO,60620,Illinois,United States
1154 W BELMONT AVE,CHICAGO,CITY OF CHICAGO,60657,Illinois,United States
10101 S EWING AVE # 03,CHICAGO,CITY OF CHICAGO,60617,Illinois,United States
2141 W 79TH ST,CHICAGO,CITY OF CHICAGO,60620,Illinois,United States
1243 W BELMONT AVE,CHICAGO,CITY OF CHICAGO,60657,Illinois,United States
8321 S ADA ST,CHICAGO,CITY OF CHICAGO,60620,Illinois,United States
6720 S OAKLEY AVE,CHICAGO,CITY OF CHICAGO,60636,Illinois,United States
7532 S MICHIGAN AVE,CHICAGO,CITY OF CHICAGO,60619,Illinois,United States
647 N PINE AVE FL 1ST,CHICAGO,CITY OF CHICAGO,60644,Illinois,United States
6116 S CALIFORNIA AVE,CHICAGO,CITY OF CHICAGO,60629,Illinois,United States
4941 W WOLFRAM ST,CHICAGO,CITY OF CHICAGO,60641,Illinois,United States
5119 W WEST END AVE FL 1ST,CHICAGO,CITY OF CHICAGO,60644,Illinois,United States
5412 S INDIANA AVE,CHICAGO,CITY OF CHICAGO,60615,Illinois,United States
6508 S BISHOP ST,CHICAGO,CITY OF CHICAGO,60636,Illinois,United States
9207 S PHILLIPS AVE,CHICAGO,CITY OF CHICAGO,60617,Illinois,United States
3550 W FRANKLIN BLVD,CHICAGO,CITY OF CHICAGO,60624,Illinois,United States
5045 W MAYPOLE AVE FL 2,CHICAGO,CITY OF CHICAGO,60644,Illinois,United States
8749 S ELIZABETH ST,CHICAGO,CITY OF CHICAGO,60620,Illinois,United States
6719 S MAY ST,CHICAGO,CITY OF CHICAGO,60621,Illinois,United States
614 N TRUMBULL AVE APT 2,CHICAGO,CITY OF CHICAGO,60624,Illinois,United States
8625 S COTTAGE GROVE AVE,CHICAGO,CITY OF CHICAGO,60619,Illinois,United States
9700 S EMERALD AVE,CHICAGO,CITY OF CHICAGO,60628,Illinois,United States
8954 S JEFFERY BLVD,CHICAGO,CITY OF CHICAGO,60617,Illinois,United States
1621 S HARDING AVE APT 1,CHICAGO,CITY OF CHICAGO,60623,Illinois,United States
11834 S STEWART AVE,CHICAGO,CITY OF CHICAGO,60628,Illinois,United States
8409 S THROOP ST,CHICAGO,CITY OF CHICAGO,60620,Illinois,United States
3018 S WELLS ST,CHICAGO,CITY OF CHICAGO,60616,Illinois,United States
5921 W ADDISON ST APT 1,CHICAGO,CITY OF CHICAGO,60634,Illinois,United States
6434 S CARPENTER ST,CHICAGO,CITY OF CHICAGO,60621,Illinois,United States
6223 S HONORE ST,CHICAGO,CITY OF CHICAGO,60636,Illinois,United States
4527 W WEST END AVE,CHICAGO,CITY OF CHICAGO,60624,Illinois,United States
1849 S DRAKE AVE APT 2,CHICAGO,CITY OF CHICAGO,60623,Illinois,United States
7723 S WOLCOTT AVE,CHICAGO,CITY OF CHICAGO,60620,Illinois,United States
3522 W JACKSON BLVD,CHICAGO,CITY OF CHICAGO,60624,Illinois,United States
8111 S CHAPPEL AVE,CHICAGO,CITY OF CHICAGO,60617,Illinois,United States
1631 N MERRIMAC AVE,CHICAGO,CITY OF CHICAGO,60639,Illinois,United States
4717 S KEELER AVE,CHICAGO,CITY OF CHICAGO,60632,Illinois,United States
8546 S CONSTANCE AVE,CHICAGO,CITY OF CHICAGO,60617,Illinois,United States
8117 S WABASH AVE,CHICAGO,CITY OF CHICAGO,60619,Illinois,United States
3438 E 114TH ST,CHICAGO,CITY OF CHICAGO,60617,Illinois,United States
516 E 91ST PL,CHICAGO,CITY OF CHICAGO,60619,Illinois,United States
612 E 95TH ST,CHICAGO,CITY OF CHICAGO,60619,Illinois,United States
5732 S PRAIRIE AVE APT 1S,CHICAGO,CITY OF CHICAGO,60637,Illinois,United States
1416 N MONITOR AVE,CHICAGO,CITY OF CHICAGO,60651,Illinois,United States
6211 S KIMBARK AVE,CHICAGO,CITY OF CHICAGO,60637,Illinois,United States
10408 S EMERALD AVE,CHICAGO,CITY OF CHICAGO,60628,Illinois,United States
1894 N MILWAUKEE AVE,CHICAGO,CITY OF CHICAGO,60647,Illinois,United States
815 N MENARD AVE,CHICAGO,CITY OF CHICAGO,60651,Illinois,United States
7559 W ADDISON ST,CHICAGO,CITY OF CHICAGO,60634,Illinois,United States
1000 S WESTERN AVE,CHICAGO,CITY OF CHICAGO,60612,Illinois,United States
1107 W 112TH ST,CHICAGO,CITY OF CHICAGO,60643,Illinois,United States
7837 S LOOMIS BLVD,CHICAGO,CITY OF CHICAGO,60620,Illinois,United States
1459 W 74TH ST,CHICAGO,CITY OF CHICAGO,60636,Illinois,United States
8211 S WOLCOTT AVE,CHICAGO,CITY OF CHICAGO,60620,Illinois,United States
4846 N CLARK ST,CHICAGO,CITY OF CHICAGO,60640,Illinois,United States
2446 W 119TH ST,CHICAGO,CITY OF CHICAGO,60655,Illinois,United States
449 W 103RD PL,CHICAGO,CITY OF CHICAGO,60628,Illinois,United States
7654 S LOOMIS BLVD,CHICAGO,CITY OF CHICAGO,60620,Illinois,United States
1338 W 107TH ST,CHICAGO,CITY OF CHICAGO,60643,Illinois,United States
10544 S CORLISS AVE,CHICAGO,CITY OF CHICAGO,60628,Illinois,United States
5645 N MILWAUKEE AVE # 47,CHICAGO,CITY OF CHICAGO,60646,Illinois,United States
1667 N WESTERN AVE,CHICAGO,CITY OF CHICAGO,60647,Illinois,United States
2513 W 71ST ST,CHICAGO,CITY OF CHICAGO,60629,Illinois,United States
2603 N HALSTED ST # 2611,CHICAGO,CITY OF CHICAGO,60614,Illinois,United States
7008 S PAULINA ST APT 1ST,CHICAGO,CITY OF CHICAGO,60636,Illinois,United States
1620 N MELVINA AVE,CHICAGO,CITY OF CHICAGO,60639,Illinois,United States
7801 S CLYDE AVE,CHICAGO,CITY OF CHICAGO,60649,Illinois,United States
7446 S LUELLA AVE,CHICAGO,CITY OF CHICAGO,60649,Illinois,United States
1125 W 31ST ST FL 1ST,CHICAGO,CITY OF CHICAGO,60608,Illinois,United States
10436 S SANGAMON ST,CHICAGO,CITY OF CHICAGO,60643,Illinois,United States
8928 S EGGLESTON AVE,CHICAGO,CITY OF CHICAGO,60620,Illinois,United States
1943 N LEAVITT ST,CHICAGO,CITY OF CHICAGO,60647,Illinois,United States
1825 W NEWPORT AVE,CHICAGO,CITY OF CHICAGO,60657,Illinois,United States
1701 W CHICAGO AVE,CHICAGO,CITY OF CHICAGO,60622,Illinois,United States
1207 N CLEVELAND AVE,CHICAGO,CITY OF CHICAGO,60610,Illinois,United States
9822 S NORMAL AVE,CHICAGO,CITY OF CHICAGO,60628,Illinois,United States
7431 S STEWART AVE,CHICAGO,CITY OF CHICAGO,60621,Illinois,United States
1707 E 83RD PL,CHICAGO,CITY OF CHICAGO,60617,Illinois,United States
548 E 63RD ST # 558,CHICAGO,CITY OF CHICAGO,60637,Illinois,United States
32 W 40TH PL # 2,CHICAGO,CITY OF CHICAGO,60609,Illinois,United States
1908 W MONTROSE AVE,CHICAGO,CITY OF CHICAGO,60613,Illinois,United States
1711 E 73RD ST APT 1,CHICAGO,CITY OF CHICAGO,60649,Illinois,United States
7441 S YATES BLVD,CHICAGO,CITY OF CHICAGO,60649,Illinois,United States
2201 W NORTH AVE,CHICAGO,CITY OF CHICAGO,60647,Illinois,United States
6916 S HONORE ST,CHICAGO,CITY OF CHICAGO,60636,Illinois,United States
4215 N AVERS AVE,CHICAGO,CITY OF CHICAGO,60618,Illinois,United States
11306 S LANGLEY AVE,CHICAGO,CITY OF CHICAGO,60628,Illinois,United States
9011 S COTTAGE GROVE AVE # 901,CHICAGO,CITY OF CHICAGO,60619,Illinois,United States
9714 S COMMERCIAL AVE FL 2ND,CHICAGO,CITY OF CHICAGO,60617,Illinois,United States
5760 S MELVINA AVE,CHICAGO,CITY OF CHICAGO,60638,Illinois,United States
4726 W MADISON ST,CHICAGO,CITY OF CHICAGO,60644,Illinois,United States
8714 S JEFFERY BLVD,CHICAGO,CITY OF CHICAGO,60617,Illinois,United States
516 W 117TH ST,CHICAGO,CITY OF CHICAGO,60628,Illinois,United States
3420 N ELSTON AVE,CHICAGO,CITY OF CHICAGO,60618,Illinois,United States
4049 N KENMORE AVE APT B,CHICAGO,CITY OF CHICAGO,60613,Illinois,United States
747 N LOCKWOOD AVE,CHICAGO,CITY OF CHICAGO,60644,Illinois,United States
1625 E 74TH PL,CHICAGO,CITY OF CHICAGO,60649,Illinois,United States
10119 S LAFAYETTE AVE,CHICAGO,CITY OF CHICAGO,60628,Illinois,United States
11829 S ASHLAND AVE,CHICAGO,CITY OF CHICAGO,60643,Illinois,United States
7842 S STEWART AVE,CHICAGO,CITY OF CHICAGO,60620,Illinois,United States
928 W GUNNISON ST APT 1,CHICAGO,CITY OF CHICAGO,60640,Illinois,United States
207 E 89TH ST,CHICAGO,CITY OF CHICAGO,60619,Illinois,United States
3839 S MICHIGAN AVE APT 2S,CHICAGO,CITY OF CHICAGO,60653,Illinois,United States
6449 S MOZART ST,CHICAGO,CITY OF CHICAGO,60629,Illinois,United States
10241 S HALSTED ST,CHICAGO,CITY OF CHICAGO,60628,Illinois,United States
1755 E 72ND PL,CHICAGO,CITY OF CHICAGO,60649,Illinois,United States
626A E 133RD ST,CHICAGO,CITY OF CHICAGO,60827,Illinois,United States
440 E 133RD ST,CHICAGO,CITY OF CHICAGO,60827,Illinois,United States
314 S KILBOURN AVE,CHICAGO,CITY OF CHICAGO,60624,Illinois,United States
1142 W 107TH PL,CHICAGO,CITY OF CHICAGO,60643,Illinois,United States
7542 S LUELLA AVE,CHICAGO,CITY OF CHICAGO,60649,Illinois,United States
3324 S ARCHER AVE UNIT C,CHICAGO,CITY OF CHICAGO,60608,Illinois,United States
8450 S MAY ST,CHICAGO,CITY OF CHICAGO,60620,Illinois,United States
311 W DIVISION ST,CHICAGO,CITY OF CHICAGO,60601,Illinois,United States
2113 W CUYLER AVE,CHICAGO,CITY OF CHICAGO,60618,Illinois,United States
4725 N WESTERN AVE,CHICAGO,CITY OF CHICAGO,60625,Illinois,United States
7841 S DAMEN AVE,CHICAGO,CITY OF CHICAGO,60620,Illinois,United States
6419 S RACINE AVE,CHICAGO,CITY OF CHICAGO,60636,Illinois,United States
5746 S ELIZABETH ST,CHICAGO,CITY OF CHICAGO,60636,Illinois,United States
622 S OAKLEY BLVD,CHICAGO,CITY OF CHICAGO,60612,Illinois,United States
8351 S LOOMIS BLVD,CHICAGO,CITY OF CHICAGO,60620,Illinois,United States
7231 S DAMEN AVE,CHICAGO,CITY OF CHICAGO,60636,Illinois,United States
1020 S WABASH AVE,CHICAGO,CITY OF CHICAGO,60605,Illinois,United States
1315 E 71ST PL,CHICAGO,CITY OF CHICAGO,60619,Illinois,United States
7016 W BERWYN AVE,CHICAGO,CITY OF CHICAGO,60656,Illinois,United States
6156 W BELMONT AVE,CHICAGO,CITY OF CHICAGO,60634,Illinois,United States
11019 S PARNELL AVE,CHICAGO,CITY OF CHICAGO,60628,Illinois,United States
427 E 87TH ST,CHICAGO,CITY OF CHICAGO,60619,Illinois,United States
8810 S PAXTON AVE,CHICAGO,CITY OF CHICAGO,60617,Illinois,United States
12558 S WALLACE ST,CHICAGO,CITY OF CHICAGO,60628,Illinois,United States
6902 S PULASKI RD,CHICAGO,CITY OF CHICAGO,60629,Illinois,United States
111 W BRAYTON ST,CHICAGO,CITY OF CHICAGO,60628,Illinois,United States
1824 W GRAND AVE STE 100,CHICAGO,CITY OF CHICAGO,60622,Illinois,United States
3046 W DEVON AVE,CHICAGO,CITY OF CHICAGO,60659,Illinois,United States
6125 W WAVELAND AVE,CHICAGO,CITY OF CHICAGO,60634,Illinois,United States
6100 N LINCOLN AVE,CHICAGO,CITY OF CHICAGO,60659,Illinois,United States
4848 N SHERIDAN RD UNIT 103,CHICAGO,CITY OF CHICAGO,60640,Illinois,United States
8258 S RIDGELAND AVE,CHICAGO,CITY OF CHICAGO,60617,Illinois,United States
1342 E 76TH ST,CHICAGO,CITY OF CHICAGO,60619,Illinois,United States
5548 S HYDE PARK BLVD,CHICAGO,CITY OF CHICAGO,60637,Illinois,United States
4657 W WEST END AVE,CHICAGO,CITY OF CHICAGO,60644,Illinois,United States
6640 W ARCHER AVE,CHICAGO,CITY OF CHICAGO,60638,Illinois,United States
1637 N MELVINA AVE,CHICAGO,CITY OF CHICAGO,60639,Illinois,United States
2118 W 67TH PL,CHICAGO,CITY OF CHICAGO,60636,Illinois,United States
7744 S MARYLAND AVE,CHICAGO,CITY OF CHICAGO,60619,Illinois,United States
4831 W VAN BUREN ST FL 1,CHICAGO,CITY OF CHICAGO,60644,Illinois,United States
5723 W SUPERIOR ST,CHICAGO,CITY OF CHICAGO,60644,Illinois,United States
11335 S ELIZABETH ST,CHICAGO,CITY OF CHICAGO,60643,Illinois,United States
646 N SAWYER AVE,CHICAGO,CITY OF CHICAGO,60624,Illinois,United States
8641 S BISHOP ST,CHICAGO,CITY OF CHICAGO,60620,Illinois,United States
9750 S LEAVITT ST,CHICAGO,CITY OF CHICAGO,60643,Illinois,United States
5039 S EVANS AVE APT 2B,CHICAGO,CITY OF CHICAGO,60615,Illinois,United States
5245 W VAN BUREN ST FL 2,CHICAGO,CITY OF CHICAGO,60644,Illinois,United States
2321 E 100TH ST,CHICAGO,CITY OF CHICAGO,60617,Illinois,United States
1653 W 43RD ST,CHICAGO,CITY OF CHICAGO,60609,Illinois,United States
2835 W CONGRESS PKWY,CHICAGO,CITY OF CHICAGO,60612,Illinois,United States
7133 S ARTESIAN AVE FL 1ST,CHICAGO,CITY OF CHICAGO,60629,Illinois,United States
7515 S DORCHESTER AVE,CHICAGO,CITY OF CHICAGO,60619,Illinois,United States
2653 W OGDEN AVE,CHICAGO,CITY OF CHICAGO,60608,Illinois,United States
9027 S KINGSTON AVE,CHICAGO,CITY OF CHICAGO,60617,Illinois,United States
2123 E 97TH ST,CHICAGO,CITY OF CHICAGO,60617,Illinois,United States
9551 S PRAIRIE AVE,CHICAGO,CITY OF CHICAGO,60628,Illinois,United States
7924 S TRUMBULL AVE,CHICAGO,CITY OF CHICAGO,60652,Illinois,United States
1004 N KARLOV AVE FL 1,CHICAGO,CITY OF CHICAGO,60651,Illinois,United States
5359 S CARPENTER ST,CHICAGO,CITY OF CHICAGO,60609,Illinois,United States
1351 N MENARD AVE FL 2,CHICAGO,CITY OF CHICAGO,60651,Illinois,United States
6025 NORTH CALIFORNIA,CHICAGO,CITY OF CHICAGO,60659,Illinois,United States
3827 W POLK ST FL 1,CHICAGO,CITY OF CHICAGO,60624,Illinois,United States
1203 S KOLIN AVE APT 1D,CHICAGO,CITY OF CHICAGO,60623,Illinois,United States
7426 S LOWE AVE,CHICAGO,CITY OF CHICAGO,60621,Illinois,United States
301 N MAYFIELD AVE,CHICAGO,CITY OF CHICAGO,60644,Illinois,United States
724 N LOCKWOOD AVE,CHICAGO,CITY OF CHICAGO,60644,Illinois,United States
1641 S HOMAN AVE FL 1,CHICAGO,CITY OF CHICAGO,60623,Illinois,United States
3606 S GILES AVE FL 1,CHICAGO,CITY OF CHICAGO,60653,Illinois,United States
1003 W 116TH ST,CHICAGO,CITY OF CHICAGO,60643,Illinois,United States
4643 W MONROE ST FL 2,CHICAGO,CITY OF CHICAGO,60644,Illinois,United States
2710 E 76TH PL,CHICAGO,CITY OF CHICAGO,60649,Illinois,United States
937 N KEYSTONE AVE,CHICAGO,CITY OF CHICAGO,60651,Illinois,United States
8109 S TALMAN AVE,CHICAGO,CITY OF CHICAGO,60652,Illinois,United States
8820 S PARNELL AVE,CHICAGO,CITY OF CHICAGO,60620,Illinois,United States
3855 N ELSTON AVE,CHICAGO,CITY OF CHICAGO,60618,Illinois,United States
1522 W 115TH ST,CHICAGO,CITY OF CHICAGO,60643,Illinois,United States
2527 E 73RD ST,CHICAGO,CITY OF CHICAGO,60649,Illinois,United States
1837 E 90TH ST,CHICAGO,CITY OF CHICAGO,60617,Illinois,United States
7018 S BELL AVE,CHICAGO,CITY OF CHICAGO,60636,Illinois,United States
518-520 E. 79TH ST.,CHICAGO,CITY OF CHICAGO,60619,Illinois,United States
10055 S RACINE AVE,CHICAGO,CITY OF CHICAGO,60643,Illinois,United States
10522 S CHURCH ST,CHICAGO,CITY OF CHICAGO,60643,Illinois,United States
3346 W 65TH PL,CHICAGO,CITY OF CHICAGO,60629,Illinois,United States
4341 S ELLIS AVE,CHICAGO,CITY OF CHICAGO,60653,Illinois,United States
3732 W 84TH ST,CHICAGO,CITY OF CHICAGO,60652,Illinois,United States
1108 N LOREL AVE,CHICAGO,CITY OF CHICAGO,60651,Illinois,United States
9249 S LOOMIS ST,CHICAGO,CITY OF CHICAGO,60620,Illinois,United States
8317 S KERFOOT AVE,CHICAGO,CITY OF CHICAGO,60620,Illinois,United States
3655 N BELL AVE,CHICAGO,CITY OF CHICAGO,60618,Illinois,United States
112 E 51ST ST,CHICAGO,CITY OF CHICAGO,60615,Illinois,United States
4724 S LAMON AVE,CHICAGO,CITY OF CHICAGO,60638,Illinois,United States
12639 S MANISTEE AVE,CHICAGO,CITY OF CHICAGO,60633,Illinois,United States
1624 E 85TH ST,CHICAGO,CITY OF CHICAGO,60617,Illinois,United States
6841 S PAULINA ST,CHICAGO,CITY OF CHICAGO,60636,Illinois,United States
7825 S OGLESBY AVE,CHICAGO,CITY OF CHICAGO,60649,Illinois,United States
815 W 74TH ST,CHICAGO,CITY OF CHICAGO,60621,Illinois,United States
825 E 89TH ST,CHICAGO,CITY OF CHICAGO,60619,Illinois,United States
1921 E 79TH ST,CHICAGO,CITY OF CHICAGO,60649,Illinois,United States
1120 N LAMON AVE,CHICAGO,CITY OF CHICAGO,60651,Illinois,United States
7729 S CALUMET AVE,CHICAGO,CITY OF CHICAGO,60619,Illinois,United States
1327 W 71ST ST,CHICAGO,CITY OF CHICAGO,60636,Illinois,United States
719 E 63RD ST,CHICAGO,CITY OF CHICAGO,60637,Illinois,United States
6140 S RHODES AVE,CHICAGO,CITY OF CHICAGO,60637,Illinois,United States
5100 W CRYSTAL ST,CHICAGO,CITY OF CHICAGO,60651,Illinois,United States
5324 S MICHIGAN AVE,CHICAGO,CITY OF CHICAGO,60615,Illinois,United States
6416 S ALBANY AVE,CHICAGO,CITY OF CHICAGO,60629,Illinois,United States
7552 S YATES BLVD,CHICAGO,CITY OF CHICAGO,60649,Illinois,United States
1681 N MILWAUKEE AVE,CHICAGO,CITY OF CHICAGO,60647,Illinois,United States
5613 W CORCORAN PL,CHICAGO,CITY OF CHICAGO,60644,Illinois,United States
7736 S ESSEX AVE APT 3,CHICAGO,CITY OF CHICAGO,60649,Illinois,United States
718 N LAWNDALE AVE FL 2,CHICAGO,CITY OF CHICAGO,60624,Illinois,United States
10813 S INDIANA AVE,CHICAGO,CITY OF CHICAGO,60628,Illinois,United States
604 E 88TH ST,CHICAGO,CITY OF CHICAGO,60619,Illinois,United States
2809 W 59TH ST,CHICAGO,CITY OF CHICAGO,60629,Illinois,United States
6401 S ASHLAND AVE,CHICAGO,CITY OF CHICAGO,60636,Illinois,United States
5924 W OHIO ST,CHICAGO,CITY OF CHICAGO,60644,Illinois,United States
5847 S INDIANA AVE,CHICAGO,CITY OF CHICAGO,60637,Illinois,United States
7308 S PAXTON AVE,CHICAGO,CITY OF CHICAGO,60649,Illinois,United States
1735 N ELSTON AVE,CHICAGO,CITY OF CHICAGO,60622,Illinois,United States
10104 S STATE ST,CHICAGO,CITY OF CHICAGO,60628,Illinois,United States
7600 S PARNELL AVE,CHICAGO,CITY OF CHICAGO,60620,Illinois,United States
127 N MAYFIELD AVE BSMT,CHICAGO,CITY OF CHICAGO,60644,Illinois,United States
7752 S RHODES AVE,CHICAGO,CITY OF CHICAGO,60619,Illinois,United States
1669 N MILWAUKEE AVE,CHICAGO,CITY OF CHICAGO,60647,Illinois,United States
626 N LATROBE AVE FL 1,CHICAGO,CITY OF CHICAGO,60644,Illinois,United States
2923 N MAJOR AVE,CHICAGO,CITY OF CHICAGO,60634,Illinois,United States
1400 S KOLIN AVE # 1408,CHICAGO,CITY OF CHICAGO,60623,Illinois,United States
7612 S MARQUETTE AVE,CHICAGO,CITY OF CHICAGO,60649,Illinois,United States
7246 S PERRY AVE,CHICAGO,CITY OF CHICAGO,60621,Illinois,United States
3542 W SUNNYSIDE AVE,CHICAGO,CITY OF CHICAGO,60625,Illinois,United States
1932 W ROSCOE ST,CHICAGO,CITY OF CHICAGO,60657,Illinois,United States
12009 S STEWART AVE,CHICAGO,CITY OF CHICAGO,60628,Illinois,United States
2411 N MARSHFIELD AVE,CHICAGO,CITY OF CHICAGO,60614,Illinois,United States
8422 S DAMEN AVE,CHICAGO,CITY OF CHICAGO,60620,Illinois,United States
9031 S COLFAX AVE,CHICAGO,CITY OF CHICAGO,60617,Illinois,United States
836 E 89TH PL,CHICAGO,CITY OF CHICAGO,60619,Illinois,United States
2510 E 74TH ST,CHICAGO,CITY OF CHICAGO,60649,Illinois,United States
234 E 115TH ST,CHICAGO,CITY OF CHICAGO,60628,Illinois,United States
5948 S LOOMIS BLVD,CHICAGO,CITY OF CHICAGO,60636,Illinois,United States
7317 S PAULINA ST,CHICAGO,CITY OF CHICAGO,60636,Illinois,United States
9345 S CLYDE AVE,CHICAGO,CITY OF CHICAGO,60617,Illinois,United States
6617 S ABERDEEN ST,CHICAGO,CITY OF CHICAGO,60621,Illinois,United States
2725 E 130TH ST,CHICAGO,CITY OF CHICAGO,60633,Illinois,United States
4803 S WABASH AVE # 1,CHICAGO,CITY OF CHICAGO,60615,Illinois,United States
5036 W MONROE ST,CHICAGO,CITY OF CHICAGO,60644,Illinois,United States
1622 N MENARD AVE,CHICAGO,CITY OF CHICAGO,60639,Illinois,United States
5801 N NORTHWEST HWY,CHICAGO,CITY OF CHICAGO,60631,Illinois,United States
8247 S RHODES AVE,CHICAGO,CITY OF CHICAGO,60619,Illinois,United States
1516 W PRATT BLVD UNIT E,CHICAGO,CITY OF CHICAGO,60626,Illinois,United States
11531 S MAY ST,CHICAGO,CITY OF CHICAGO,60643,Illinois,United States
8266 S ANTHONY AVE,CHICAGO,CITY OF CHICAGO,60617,Illinois,United States
6010 S PULASKI RD,CHICAGO,CITY OF CHICAGO,60629,Illinois,United States
1300 W 99TH ST,CHICAGO,CITY OF CHICAGO,60643,Illinois,United States
211 W 79TH ST # 15,CHICAGO,CITY OF CHICAGO,60620,Illinois,United States
5525 S LA SALLE ST,CHICAGO,CITY OF CHICAGO,60621,Illinois,United States
1520 W 114TH PL,CHICAGO,CITY OF CHICAGO,60643,Illinois,United States
4323 W CERMAK RD,CHICAGO,CITY OF CHICAGO,60623,Illinois,United States
9221 S COLFAX AVE,CHICAGO,CITY OF CHICAGO,60617,Illinois,United States
4234 W CULLERTON ST,CHICAGO,CITY OF CHICAGO,60623,Illinois,United States
8144 S LAFLIN ST,CHICAGO,CITY OF CHICAGO,60620,Illinois,United States
6401 S KNOX AVE,CHICAGO,CITY OF CHICAGO,60629,Illinois,United States
8415 S WABASH AVE,CHICAGO,CITY OF CHICAGO,60619,Illinois,United States
444 W 97TH ST,CHICAGO,CITY OF CHICAGO,60628,Illinois,United States
3353 W 84TH ST,CHICAGO,CITY OF CHICAGO,60652,Illinois,United States
1057 N MENARD AVE FL 1ST,CHICAGO,CITY OF CHICAGO,60651,Illinois,United States
1469 W 112TH PL,CHICAGO,CITY OF CHICAGO,60643,Illinois,United States
4444 S KEDZIE AVE # 4446,CHICAGO,CITY OF CHICAGO,60632,Illinois,United States
7231 S CLAREMONT AVE,CHICAGO,CITY OF CHICAGO,60636,Illinois,United States
7247 S LANGLEY AVE FL 1,CHICAGO,CITY OF CHICAGO,60619,Illinois,United States
4248 S KING DR,CHICAGO,CITY OF CHICAGO,60653,Illinois,United States
2101 W HOOD AVE UNIT 1E,CHICAGO,CITY OF CHICAGO,60659,Illinois,United States
1400 W 110TH PL,CHICAGO,CITY OF CHICAGO,60643,Illinois,United States
627 E 89TH PL,CHICAGO,CITY OF CHICAGO,60619,Illinois,United States
1343 S KOLIN AVE,CHICAGO,CITY OF CHICAGO,60623,Illinois,United States
440 E 71ST ST # 442,CHICAGO,CITY OF CHICAGO,60619,Illinois,United States
550 W 103RD ST,CHICAGO,CITY OF CHICAGO,60628,Illinois,United States
834 W 31ST ST # 836,CHICAGO,CITY OF CHICAGO,60608,Illinois,United States
7609 S RHODES AVE,CHICAGO,CITY OF CHICAGO,60619,Illinois,United States
1939 W 79TH ST,CHICAGO,CITY OF CHICAGO,60620,Illinois,United States
3222 W 64TH ST,CHICAGO,CITY OF CHICAGO,60629,Illinois,United States
1 N OGDEN AVE,CHICAGO,CITY OF CHICAGO,60607,Illinois,United States
4900 W VAN BUREN ST FL 2,CHICAGO,CITY OF CHICAGO,60644,Illinois,United States
710 W 31ST ST,CHICAGO,CITY OF CHICAGO,60616,Illinois,United States
7647 S COLFAX AVE,CHICAGO,CITY OF CHICAGO,60649,Illinois,United States
1301 W MADISON ST STE 100,CHICAGO,CITY OF CHICAGO,60607,Illinois,United States
2350 S WENTWORTH AVE,CHICAGO,CITY OF CHICAGO,60616,Illinois,United States
2921 W 71ST ST,CHICAGO,CITY OF CHICAGO,60629,Illinois,United States
7828 S CARPENTER ST,CHICAGO,CITY OF CHICAGO,60620,Illinois,United States
3121 W FULLERTON AVE,CHICAGO,CITY OF CHICAGO,60647,Illinois,United States
9048 S CHAPPEL AVE,CHICAGO,CITY OF CHICAGO,60617,Illinois,United States
3539 S CALUMET AVE,CHICAGO,CITY OF CHICAGO,60653,Illinois,United States
2502 W FITCH AVE,CHICAGO,CITY OF CHICAGO,60645,Illinois,United States
7523 S DANTE AVE,CHICAGO,CITY OF CHICAGO,60619,Illinois,United States
5051 W MONROE ST APT 1ST,CHICAGO,CITY OF CHICAGO,60644,Illinois,United States
10862 S PROSPECT AVE,CHICAGO,CITY OF CHICAGO,60643,Illinois,United States
4229 N NARRAGANSETT AVE,CHICAGO,CITY OF CHICAGO,60634,Illinois,United States
21 E 59TH ST,CHICAGO,CITY OF CHICAGO,60637,Illinois,United States
1309 W 112TH ST,CHICAGO,CITY OF CHICAGO,60643,Illinois,United States
1724 N LARAMIE AVE,CHICAGO,CITY OF CHICAGO,60639,Illinois,United States
1545 W MORSE AVE,CHICAGO,CITY OF CHICAGO,60626,Illinois,United States
48 E 91ST ST,CHICAGO,CITY OF CHICAGO,60619,Illinois,United States
5418 W JACKSON BLVD,CHICAGO,CITY OF CHICAGO,60644,Illinois,United States
50 E 101ST PL APT 1,CHICAGO,CITY OF CHICAGO,60628,Illinois,United States
6841 S ADA ST,CHICAGO,CITY OF CHICAGO,60636,Illinois,United States
528 N LECLAIRE AVE APT 2,CHICAGO,CITY OF CHICAGO,60644,Illinois,United States
11371 S HERMOSA AVE,CHICAGO,CITY OF CHICAGO,60643,Illinois,United States
1511 E 83RD ST,CHICAGO,CITY OF CHICAGO,60619,Illinois,United States
5316 W GLADYS AVE,CHICAGO,CITY OF CHICAGO,60644,Illinois,United States
1316 W 99TH ST,CHICAGO,CITY OF CHICAGO,60643,Illinois,United States
108 W GERMANIA PL,CHICAGO,CITY OF CHICAGO,60610,Illinois,United States
8908 S LOWE AVE,CHICAGO,CITY OF CHICAGO,60620,Illinois,United States
7305 N HAMILTON AVE,CHICAGO,CITY OF CHICAGO,60645,Illinois,United States
9319 S KINGSTON AVE,CHICAGO,CITY OF CHICAGO,60617,Illinois,United States
5435 W IOWA ST,CHICAGO,CITY OF CHICAGO,60651,Illinois,United States
12134 S BISHOP ST,CHICAGO,CITY OF CHICAGO,60643,Illinois,United States
8231 S WOOD ST,CHICAGO,CITY OF CHICAGO,60620,Illinois,United States
12207 S YALE AVE,CHICAGO,CITY OF CHICAGO,60628,Illinois,United States
2547 W LITHUANIAN PLAZA CT,CHICAGO,CITY OF CHICAGO,60629,Illinois,United States
2127 W SCHOOL ST,CHICAGO,CITY OF CHICAGO,60618,Illinois,United States
11053 S VINCENNES AVE,CHICAGO,CITY OF CHICAGO,60643,Illinois,United States
622 W 31ST ST # 624,CHICAGO,CITY OF CHICAGO,60616,Illinois,United States
3410 W PIERCE AVE,CHICAGO,CITY OF CHICAGO,60651,Illinois,United States
7754 S COLES AVE,CHICAGO,CITY OF CHICAGO,60649,Illinois,United States
8234 S LOOMIS BLVD,CHICAGO,CITY OF CHICAGO,60620,Illinois,United States
207 E 79TH ST # 209,CHICAGO,CITY OF CHICAGO,60619,Illinois,United States
5752 S PULASKI RD # 54,CHICAGO,CITY OF CHICAGO,60629,Illinois,United States
4206 W HADDON AVE,CHICAGO,CITY OF CHICAGO,60651,Illinois,United States
1263 W 74TH ST,CHICAGO,CITY OF CHICAGO,60636,Illinois,United States
8258 S SAINT LAWRENCE AVE,CHICAGO,CITY OF CHICAGO,60619,Illinois,United States
7751 S CHRISTIANA AVE,CHICAGO,CITY OF CHICAGO,60652,Illinois,United States
7806 S LUELLA AVE,CHICAGO,CITY OF CHICAGO,60649,Illinois,United States
3707 N OAK PARK AVE,CHICAGO,CITY OF CHICAGO,60634,Illinois,United States
7209 S HALSTED ST,CHICAGO,CITY OF CHICAGO,60621,Illinois,United States
5858 W ROOSEVELT RD,CHICAGO,CITY OF CHICAGO,60644,Illinois,United States
8238 S INGLESIDE AVE,CHICAGO,CITY OF CHICAGO,60619,Illinois,United States
2411 E 93RD ST,CHICAGO,CITY OF CHICAGO,60617,Illinois,United States
6117 S ASHLAND AVE # 21,CHICAGO,CITY OF CHICAGO,60636,Illinois,United States
342 W GARFIELD BLVD,CHICAGO,CITY OF CHICAGO,60609,Illinois,United States
2550 W FARWELL AVE,CHICAGO,CITY OF CHICAGO,60645,Illinois,United States
2222 N KEDZIE BLVD,CHICAGO,CITY OF CHICAGO,60647,Illinois,United States
1305 W 111TH ST # 07,CHICAGO,CITY OF CHICAGO,60643,Illinois,United States
4204 S CALUMET AVE,CHICAGO,CITY OF CHICAGO,60653,Illinois,United States
4948 W OHIO ST,CHICAGO,CITY OF CHICAGO,60644,Illinois,United States
10128 S WINSTON AVE,CHICAGO,CITY OF CHICAGO,60643,Illinois,United States
3945 S INDIANA AVE,CHICAGO,CITY OF CHICAGO,60653,Illinois,United States
3809 N CICERO AVE,CHICAGO,CITY OF CHICAGO,60641,Illinois,United States
3245 W WASHINGTON BLVD,CHICAGO,CITY OF CHICAGO,60624,Illinois,United States
4710 W RACE AVE,CHICAGO,CITY OF CHICAGO,60644,Illinois,United States
520 N ALBANY AVE APT 2,CHICAGO,CITY OF CHICAGO,60612,Illinois,United States
4347 W GLADYS AVE,CHICAGO,CITY OF CHICAGO,60624,Illinois,United States
9256 S CALUMET AVE,CHICAGO,CITY OF CHICAGO,60619,Illinois,United States
2734 W NORTH AVE,CHICAGO,CITY OF CHICAGO,60647,Illinois,United States
7144 S WHIPPLE ST,CHICAGO,CITY OF CHICAGO,60629,Illinois,United States
5644 S ELIZABETH ST,CHICAGO,CITY OF CHICAGO,60636,Illinois,United States
11640 S WENTWORTH AVE,CHICAGO,CITY OF CHICAGO,60628,Illinois,United States
8152 S PRINCETON AVE,CHICAGO,CITY OF CHICAGO,60620,Illinois,United States
7515 N GREENVIEW AVE UNIT 1,CHICAGO,CITY OF CHICAGO,60626,Illinois,United States
757 N AUSTIN BLVD,CHICAGO,CITY OF CHICAGO,60644,Illinois,United States
11023 S AVENUE B,CHICAGO,CITY OF CHICAGO,60617,Illinois,United States
7801 S WOLCOTT AVE,CHICAGO,CITY OF CHICAGO,60620,Illinois,United States
1240 S WASHTENAW AVE APT 202,CHICAGO,CITY OF CHICAGO,60608,Illinois,United States
5824 S STONY ISLAND AVE,CHICAGO,CITY OF CHICAGO,60637,Illinois,United States
10650 S MICHIGAN AVE,CHICAGO,CITY OF CHICAGO,60628,Illinois,United States
6221 S WINCHESTER AVE,CHICAGO,CITY OF CHICAGO,60636,Illinois,United States
3232 N OSAGE AVE,CHICAGO,CITY OF CHICAGO,60634,Illinois,United States
1022 N MASSASOIT AVE FL 2ND,CHICAGO,CITY OF CHICAGO,60651,Illinois,United States
12258 S YALE AVE,CHICAGO,CITY OF CHICAGO,60628,Illinois,United States
710 E 47TH ST,CHICAGO,CITY OF CHICAGO,60653,Illinois,United States
11223 S HALSTED ST,CHICAGO,CITY OF CHICAGO,60628,Illinois,United States
226 W 110TH PL,CHICAGO,CITY OF CHICAGO,60628,Illinois,United States
4939 N MOZART ST APT 2,CHICAGO,CITY OF CHICAGO,60625,Illinois,United States
4915 N BROADWAY ST,CHICAGO,CITY OF CHICAGO,60640,Illinois,United States
4648 N CLARK ST,CHICAGO,CITY OF CHICAGO,60640,Illinois,United States
229 S PEORIA ST,CHICAGO,CITY OF CHICAGO,60607,Illinois,United States
8216 S LAFAYETTE AVE,CHICAGO,CITY OF CHICAGO,60620,Illinois,United States
4200 N CENTRAL AVE STE B,CHICAGO,CITY OF CHICAGO,60634,Illinois,United States
5081 N ELSTON AVE STE 2,CHICAGO,CITY OF CHICAGO,60630,Illinois,United States
126 N LOTUS AVE APT 2ND,CHICAGO,CITY OF CHICAGO,60644,Illinois,United States
10200 S EBERHART AVE,CHICAGO,CITY OF CHICAGO,60628,Illinois,United States
3756 W 59TH PL,CHICAGO,CITY OF CHICAGO,60629,Illinois,United States
3824 N NORDICA AVE,CHICAGO,CITY OF CHICAGO,60634,Illinois,United States
5839 W BERENICE AVE BSMT,CHICAGO,CITY OF CHICAGO,60634,Illinois,United States
3234 N SACRAMENTO AVE,CHICAGO,CITY OF CHICAGO,60618,Illinois,United States
6742 S KEDVALE AVE,CHICAGO,CITY OF CHICAGO,60629,Illinois,United States
3542 W 72ND ST,CHICAGO,CITY OF CHICAGO,60629,Illinois,United States
10625 S AVENUE O,CHICAGO,CITY OF CHICAGO,60617,Illinois,United States
4547 N CENTRAL PARK,CHICAGO,CITY OF CHICAGO,60625,Illinois,United States
5753 S MOZART ST,CHICAGO,CITY OF CHICAGO,60629,Illinois,United States
5240 S LAWNDALE AVE,CHICAGO,CITY OF CHICAGO,60632,Illinois,United States
2359 N NEWLAND AVE,CHICAGO,CITY OF CHICAGO,60707,Illinois,United States
4722 S CAMPBELL AVE,CHICAGO,CITY OF CHICAGO,60632,Illinois,United States
5740 S MOZART ST,CHICAGO,CITY OF CHICAGO,60629,Illinois,United States
5942 S TROY ST,CHICAGO,CITY OF CHICAGO,60629,Illinois,United States
4906 W MONTANA ST,CHICAGO,CITY OF CHICAGO,60639,Illinois,United States
3900 W 70TH ST,CHICAGO,CITY OF CHICAGO,60629,Illinois,United States
1904 W CULLERTON ST,CHICAGO,CITY OF CHICAGO,60608,Illinois,United States
5641 S KOLMAR AVE,CHICAGO,CITY OF CHICAGO,60629,Illinois,United States
4237 N MONITOR AVE,CHICAGO,CITY OF CHICAGO,60634,Illinois,United States
3140 W 54TH ST,CHICAGO,CITY OF CHICAGO,60632,Illinois,United States
4336 W PARKER AVE,CHICAGO,CITY OF CHICAGO,60639,Illinois,United States
5821 S SAWYER AVE,CHICAGO,CITY OF CHICAGO,60629,Illinois,United States
9813 S AVENUE M,CHICAGO,CITY OF CHICAGO,60617,Illinois,United States
4918 W WOLFRAM ST,CHICAGO,CITY OF CHICAGO,60641,Illinois,United States
4758 S KOMENSKY AVE FL 1,CHICAGO,CITY OF CHICAGO,60632,Illinois,United States
5719 S CALIFORNIA AVE,CHICAGO,CITY OF CHICAGO,60629,Illinois,United States
5018 N CENTRAL PARK AVE,CHICAGO,CITY OF CHICAGO,60625,Illinois,United States
908 N HOMAN AVE,CHICAGO,CITY OF CHICAGO,60651,Illinois,United States
4344 S CAMPBELL AVE,CHICAGO,CITY OF CHICAGO,60632,Illinois,United States
8541 S KARLOV AVE,CHICAGO,CITY OF CHICAGO,60652,Illinois,United States
1417 N KEELER AVE,CHICAGO,CITY OF CHICAGO,60651,Illinois,United States
3054 N KEATING AVE,CHICAGO,CITY OF CHICAGO,60641,Illinois,United States
6816 S PAXTON AVE APT 3,CHICAGO,CITY OF CHICAGO,60649,Illinois,United States
600 W 31ST ST,CHICAGO,CITY OF CHICAGO,60616,Illinois,United States
9912 S CALUMET AVE,CHICAGO,CITY OF CHICAGO,60628,Illinois,United States
1414 W 87TH ST,CHICAGO,CITY OF CHICAGO,60620,Illinois,United States
850 W EASTWOOD AVE STE 1,CHICAGO,CITY OF CHICAGO,60640,Illinois,United States
1639 N NEW ENGLAND AVE,CHICAGO,CITY OF CHICAGO,60707,Illinois,United States
8629 S MARQUETTE AVE,CHICAGO,CITY OF CHICAGO,60617,Illinois,United States
3822 W MONROE ST FL 2ND,CHICAGO,CITY OF CHICAGO,60624,Illinois,United States
1612 W NORTH AVE,CHICAGO,CITY OF CHICAGO,60622,Illinois,United States
6328 W HUNTINGTON ST,CHICAGO,CITY OF CHICAGO,60646,Illinois,United States
4900 S INDIANA AVE,CHICAGO,CITY OF CHICAGO,60615,Illinois,United States
4129 W CERMAK RD FL 2,CHICAGO,CITY OF CHICAGO,60623,Illinois,United States
8859 S DANTE AVE,CHICAGO,CITY OF CHICAGO,60619,Illinois,United States
2255 W LAWRENCE AVE,CHICAGO,CITY OF CHICAGO,60625,Illinois,United States
3528 W 75TH PL,CHICAGO,CITY OF CHICAGO,60652,Illinois,United States
7937 S THROOP ST,CHICAGO,CITY OF CHICAGO,60620,Illinois,United States
8939 S EMERALD AVE,CHICAGO,CITY OF CHICAGO,60620,Illinois,United States
8219 S SANGAMON ST FL 1,CHICAGO,CITY OF CHICAGO,60620,Illinois,United States
1058 S MAYFIELD AVE,CHICAGO,CITY OF CHICAGO,60644,Illinois,United States
761 E 104TH PL,CHICAGO,CITY OF CHICAGO,60628,Illinois,United States
2650 N ASHLAND AVE,CHICAGO,CITY OF CHICAGO,60614,Illinois,United States
3109 N SOUTHPORT AVE,CHICAGO,CITY OF CHICAGO,60657,Illinois,United States
3219 W CARROLL AVE,CHICAGO,CITY OF CHICAGO,60624,Illinois,United States
8825 S COLFAX AVE,CHICAGO,CITY OF CHICAGO,60617,Illinois,United States
2239 W LAWRENCE AVE,CHICAGO,CITY OF CHICAGO,60625,Illinois,United States
424 W 127TH ST,CHICAGO,CITY OF CHICAGO,60628,Illinois,United States
10231 S WALLACE ST,CHICAGO,CITY OF CHICAGO,60628,Illinois,United States
1800 N WESTERN AVE # 10,CHICAGO,CITY OF CHICAGO,60647,Illinois,United States
101 E 69TH ST # 115,CHICAGO,CITY OF CHICAGO,60637,Illinois,United States
1770 W WILSON AVE,CHICAGO,CITY OF CHICAGO,60640,Illinois,United States
1912 N PULASKI RD,CHICAGO,CITY OF CHICAGO,60639,Illinois,United States
2157 N DAMEN AVE # 1B,CHICAGO,CITY OF CHICAGO,60647,Illinois,United States
2026 W BELMONT AVE # 2028,CHICAGO,CITY OF CHICAGO,60618,Illinois,United States
2850 N LINCOLN AVE,CHICAGO,CITY OF CHICAGO,60657,Illinois,United States
11329 S WALLACE ST,CHICAGO,CITY OF CHICAGO,60628,Illinois,United States
2047 W CHASE AVE,CHICAGO,CITY OF CHICAGO,60645,Illinois,United States
3237 W BRYN MAWR AVE,CHICAGO,CITY OF CHICAGO,60659,Illinois,United States
9710 S DAMEN AVE,CHICAGO,CITY OF CHICAGO,60643,Illinois,United States
3110 N SAINT LOUIS AVE,CHICAGO,CITY OF CHICAGO,60618,Illinois,United States
6759 N GREENVIEW AVE,CHICAGO,CITY OF CHICAGO,60626,Illinois,United States
1750 N NATOMA AVE,CHICAGO,CITY OF CHICAGO,60707,Illinois,United States
3243 W BRYN MAWR AVE,CHICAGO,CITY OF CHICAGO,60659,Illinois,United States
3764 S INDIANA AVE,CHICAGO,CITY OF CHICAGO,60653,Illinois,United States
4967 N ELSTON AVE,CHICAGO,CITY OF CHICAGO,60630,Illinois,United States
17 E PEARSON ST FL 1ST,CHICAGO,CITY OF CHICAGO,60611,Illinois,United States
7039 W GRAND AVE # 43,CHICAGO,CITY OF CHICAGO,60707,Illinois,United States
9906 S CALUMET AVE,CHICAGO,CITY OF CHICAGO,60628,Illinois,United States
3826 N BROADWAY ST,CHICAGO,CITY OF CHICAGO,60613,Illinois,United States
7250 W TOUHY AVE,CHICAGO,CITY OF CHICAGO,60631,Illinois,United States
3052 W JACKSON BLVD APT A,CHICAGO,CITY OF CHICAGO,60612,Illinois,United States
10230 S HALSTED ST,CHICAGO,CITY OF CHICAGO,60628,Illinois,United States
7101 N WESTERN AVE,CHICAGO,CITY OF CHICAGO,60645,Illinois,United States
4509 N SPAULDING AVE,CHICAGO,CITY OF CHICAGO,60625,Illinois,United States
2184 N ELSTON AVE,CHICAGO,CITY OF CHICAGO,60614,Illinois,United States
11407 S EMERALD AVE,CHICAGO,CITY OF CHICAGO,60628,Illinois,United States
6448 S DREXEL AVE,CHICAGO,CITY OF CHICAGO,60637,Illinois,United States
3800 W 84TH ST,CHICAGO,CITY OF CHICAGO,60652,Illinois,United States
1921 W HOWARD ST,CHICAGO,CITY OF CHICAGO,60626,Illinois,United States
724 W 50TH PL,CHICAGO,CITY OF CHICAGO,60609,Illinois,United States
80 W HARRISON ST,CHICAGO,CITY OF CHICAGO,60605,Illinois,United States
7331 S COTTAGE GROVE AVE,CHICAGO,CITY OF CHICAGO,60619,Illinois,United States
2328 W TOUHY AVE,CHICAGO,CITY OF CHICAGO,60645,Illinois,United States
2246 E 73RD ST # 50,CHICAGO,CITY OF CHICAGO,60649,Illinois,United States
10442 S NORMAL AVE,CHICAGO,CITY OF CHICAGO,60628,Illinois,United States
12604 S UNION AVE,CHICAGO,CITY OF CHICAGO,60628,Illinois,United States
6112 S EVANS AVE,CHICAGO,CITY OF CHICAGO,60637,Illinois,United States
2138 W 72ND ST,CHICAGO,CITY OF CHICAGO,60636,Illinois,United States
9107 S MICHIGAN AVE,CHICAGO,CITY OF CHICAGO,60619,Illinois,United States
2113 W 70TH PL,CHICAGO,CITY OF CHICAGO,60636,Illinois,United States
709 E 89TH PL,CHICAGO,CITY OF CHICAGO,60619,Illinois,United States
7750 W DEVON AVE # 54,CHICAGO,CITY OF CHICAGO,60631,Illinois,United States
7047 S YALE AVE,CHICAGO,CITY OF CHICAGO,60621,Illinois,United States
10239 S AVENUE N,CHICAGO,CITY OF CHICAGO,60617,Illinois,United States
2624 S KILDARE AVE,CHICAGO,CITY OF CHICAGO,60623,Illinois,United States
4754 N LEAVITT ST,CHICAGO,CITY OF CHICAGO,60625,Illinois,United States
2931 N KENNETH AVE,CHICAGO,CITY OF CHICAGO,60641,Illinois,United States
835 N ASHLAND AVE,CHICAGO,CITY OF CHICAGO,60622,Illinois,United States
321 W 31ST ST,CHICAGO,CITY OF CHICAGO,60616,Illinois,United States
2628 W 23RD ST,CHICAGO,CITY OF CHICAGO,60608,Illinois,United States
4836 N CENTRAL PARK AVE BSMT,CHICAGO,CITY OF CHICAGO,60625,Illinois,United States
5023 S TRIPP AVE,CHICAGO,CITY OF CHICAGO,60632,Illinois,United States
7329 S CALIFORNIA AVE,CHICAGO,CITY OF CHICAGO,60629,Illinois,United States
1107 W 103RD PL,CHICAGO,CITY OF CHICAGO,60643,Illinois,United States
7301 S GREENWOOD AVE,CHICAGO,CITY OF CHICAGO,60619,Illinois,United States
1635 N LINDER AVE,CHICAGO,CITY OF CHICAGO,60639,Illinois,United States
3250 N OAK PARK AVE,CHICAGO,CITY OF CHICAGO,60634,Illinois,United States
2526 W SHAKESPEARE AVE,CHICAGO,CITY OF CHICAGO,60647,Illinois,United States
1531 W LAWRENCE AVE,CHICAGO,CITY OF CHICAGO,60640,Illinois,United States
2519 W 79TH ST,CHICAGO,CITY OF CHICAGO,60652,Illinois,United States
3942 E 112TH ST,CHICAGO,CITY OF CHICAGO,60617,Illinois,United States
6332 S WASHTENAW AVE,CHICAGO,CITY OF CHICAGO,60629,Illinois,United States
10301 S CALHOUN AVE,CHICAGO,CITY OF CHICAGO,60617,Illinois,United States
1417 W TAYLOR ST FL 1,CHICAGO,CITY OF CHICAGO,60607,Illinois,United States
1642 W 93RD ST,CHICAGO,CITY OF CHICAGO,60620,Illinois,United States
4119 W 16TH ST,CHICAGO,CITY OF CHICAGO,60623,Illinois,United States
448 E 109TH ST,CHICAGO,CITY OF CHICAGO,60628,Illinois,United States
2557 W PETERSON AVE,CHICAGO,CITY OF CHICAGO,60659,Illinois,United States
620 N LOREL AVE,CHICAGO,CITY OF CHICAGO,60644,Illinois,United States
2600 W IRVING PARK RD,CHICAGO,CITY OF CHICAGO,60618,Illinois,United States
2531 N AUSTIN AVE,CHICAGO,CITY OF CHICAGO,60639,Illinois,United States
12711 S EMERALD AVE,CHICAGO,CITY OF CHICAGO,60628,Illinois,United States
2540 E 83RD ST,CHICAGO,CITY OF CHICAGO,60617,Illinois,United States
1929 S ARCHER AVE,CHICAGO,CITY OF CHICAGO,60616,Illinois,United States
4809 N RAVENSWOOD AVE,CHICAGO,CITY OF CHICAGO,60640,Illinois,United States
2129 W NORTH AVE,CHICAGO,CITY OF CHICAGO,60647,Illinois,United States
4910 W OHIO ST,CHICAGO,CITY OF CHICAGO,60644,Illinois,United States
7420 S CALUMET AVE,CHICAGO,CITY OF CHICAGO,60619,Illinois,United States
3108 W DEVON AVE,CHICAGO,CITY OF CHICAGO,60659,Illinois,United States
2902 N CENTRAL PARK,CHICAGO,CITY OF CHICAGO,60618,Illinois,United States
1030 W VAN BUREN ST,CHICAGO,CITY OF CHICAGO,60607,Illinois,United States
3421 W 12TH PL,CHICAGO,CITY OF CHICAGO,60623,Illinois,United States
8100 S PAXTON AVE,CHICAGO,CITY OF CHICAGO,60617,Illinois,United States
5426 W DEVON AVE,CHICAGO,CITY OF CHICAGO,60646,Illinois,United States
9551 S WINSTON AVE,CHICAGO,CITY OF CHICAGO,60643,Illinois,United States
537 W 28TH ST,CHICAGO,CITY OF CHICAGO,60616,Illinois,United States
5940 W DIVISION ST,CHICAGO,CITY OF CHICAGO,60651,Illinois,United States
5724 W BELMONT AVE # 28,CHICAGO,CITY OF CHICAGO,60634,Illinois,United States
2001 S WABASH AVE,CHICAGO,CITY OF CHICAGO,60616,Illinois,United States
2650 E 95TH ST,CHICAGO,CITY OF CHICAGO,60617,Illinois,United States
5124 S WESTERN AVE # 26,CHICAGO,CITY OF CHICAGO,60609,Illinois,United States
5928 N MANTON AVE,CHICAGO,CITY OF CHICAGO,60646,Illinois,United States
860 E 101ST ST,CHICAGO,CITY OF CHICAGO,60628,Illinois,United States
3575 S ARCHER AVE,CHICAGO,CITY OF CHICAGO,60609,Illinois,United States
1927 N HARLEM AVE # 1929,CHICAGO,CITY OF CHICAGO,60707,Illinois,United States
6311 N KEYSTONE AVE,CHICAGO,CITY OF CHICAGO,60646,Illinois,United States
1900 W CUYLER AVE APT 1,CHICAGO,CITY OF CHICAGO,60613,Illinois,United States
7236 S PRAIRIE AVE,CHICAGO,CITY OF CHICAGO,60619,Illinois,United States
2600 W DIVISION ST,CHICAGO,CITY OF CHICAGO,60622,Illinois,United States
4104 W ADAMS ST,CHICAGO,CITY OF CHICAGO,60624,Illinois,United States
839 N LARAMIE AVE,CHICAGO,CITY OF CHICAGO,60651,Illinois,United States
3820 W VAN BUREN ST APT 2,CHICAGO,CITY OF CHICAGO,60624,Illinois,United States
2953 W LAWRENCE AVE,CHICAGO,CITY OF CHICAGO,60625,Illinois,United States
1418 W 110TH ST,CHICAGO,CITY OF CHICAGO,60643,Illinois,United States
9941 S CARPENTER ST,CHICAGO,CITY OF CHICAGO,60643,Illinois,United States
7932 S CALUMET AVE,CHICAGO,CITY OF CHICAGO,60619,Illinois,United States
8626 S BALTIMORE AVE,CHICAGO,CITY OF CHICAGO,60617,Illinois,United States
4301 W FLOURNOY ST,CHICAGO,CITY OF CHICAGO,60624,Illinois,United States
1454 N GREENVIEW AVE,CHICAGO,CITY OF CHICAGO,60642,Illinois,United States
5467 S UNIVERSITY AVE,CHICAGO,CITY OF CHICAGO,60615,Illinois,United States
6516 S TALMAN AVE,CHICAGO,CITY OF CHICAGO,60629,Illinois,United States
9219 S KINGSTON AVE,CHICAGO,CITY OF CHICAGO,60617,Illinois,United States
332 W 100TH ST,CHICAGO,CITY OF CHICAGO,60628,Illinois,United States
8938 S COTTAGE GROVE AVE,CHICAGO,CITY OF CHICAGO,60619,Illinois,United States
1725 W GARFIELD BLVD APT 2,CHICAGO,CITY OF CHICAGO,60636,Illinois,United States
2138 E 84TH ST,CHICAGO,CITY OF CHICAGO,60617,Illinois,United States
10029 S CALUMET AVE,CHICAGO,CITY OF CHICAGO,60628,Illinois,United States
4024 W 59TH ST,CHICAGO,CITY OF CHICAGO,60629,Illinois,United States
5100 S DORCHESTER AVE # 06,CHICAGO,CITY OF CHICAGO,60615,Illinois,United States
3800 N AUSTIN AVE,CHICAGO,CITY OF CHICAGO,60634,Illinois,United States
1533 S KILBOURN AVE,CHICAGO,CITY OF CHICAGO,60623,Illinois,United States
935 W 114TH PL,CHICAGO,CITY OF CHICAGO,60643,Illinois,United States
7008 S PAULINA ST APT 2,CHICAGO,CITY OF CHICAGO,60636,Illinois,United States
4356 S BERKELEY AVE,CHICAGO,CITY OF CHICAGO,60653,Illinois,United States
8500 S DREXEL AVE,CHICAGO,CITY OF CHICAGO,60619,Illinois,United States
2649 W 51ST ST,CHICAGO,CITY OF CHICAGO,60632,Illinois,United States
2706 W WARREN BLVD,CHICAGO,CITY OF CHICAGO,60612,Illinois,United States
1711 W STEUBEN ST,CHICAGO,CITY OF CHICAGO,60643,Illinois,United States
7050 S PRAIRIE AVE,CHICAGO,CITY OF CHICAGO,60637,Illinois,United States
4135 N KILBOURN AVE,CHICAGO,CITY OF CHICAGO,60641,Illinois,United States
10009 S YATES BLVD,CHICAGO,CITY OF CHICAGO,60617,Illinois,United States
8343 S ABERDEEN ST,CHICAGO,CITY OF CHICAGO,60620,Illinois,United States
10739 S AVENUE M,CHICAGO,CITY OF CHICAGO,60617,Illinois,United States
7745 S HAMILTON AVE,CHICAGO,CITY OF CHICAGO,60620,Illinois,United States
233 W HURON ST,CHICAGO,CITY OF CHICAGO,60654,Illinois,United States
4516 W HARRISON ST,CHICAGO,CITY OF CHICAGO,60624,Illinois,United States
10807 S EMERALD AVE,CHICAGO,CITY OF CHICAGO,60628,Illinois,United States
5719 W CHICAGO AVE,CHICAGO,CITY OF CHICAGO,60651,Illinois,United States
11215 S EMERALD AVE,CHICAGO,CITY OF CHICAGO,60628,Illinois,United States
3819 N WESTERN AVE,CHICAGO,CITY OF CHICAGO,60618,Illinois,United States
4512 W VAN BUREN ST APT 2,CHICAGO,CITY OF CHICAGO,60624,Illinois,United States
10210 S PARNELL AVE,CHICAGO,CITY OF CHICAGO,60628,Illinois,United States
7228 S EBERHART AVE,CHICAGO,CITY OF CHICAGO,60619,Illinois,United States
7415 S CHAMPLAIN AVE,CHICAGO,CITY OF CHICAGO,60619,Illinois,United States
1057 W WINONA ST,CHICAGO,CITY OF CHICAGO,60640,Illinois,United States
10642 S THROOP ST,CHICAGO,CITY OF CHICAGO,60643,Illinois,United States
11839 S NORMAL AVE,CHICAGO,CITY OF CHICAGO,60628,Illinois,United States
10208 S PERRY AVE,CHICAGO,CITY OF CHICAGO,60628,Illinois,United States
4303 W FLOURNOY ST,CHICAGO,CITY OF CHICAGO,60624,Illinois,United States
11547 S HALE AVE,CHICAGO,CITY OF CHICAGO,60643,Illinois,United States
9533 S GREEN ST,CHICAGO,CITY OF CHICAGO,60643,Illinois,United States
1124 W AINSLIE,CHICAGO,CITY OF CHICAGO,60640,Illinois,United States
7825 S. ELLIS,CHICAGO,CITY OF CHICAGO,60619,Illinois,United States
3480 N LAKE SHORE DR,CHICAGO,CITY OF CHICAGO,60657,Illinois,United States
3003 W TOUHY AVE,CHICAGO,CITY OF CHICAGO,60645,Illinois,United States
6100 N MILWAUKEE AVE,CHICAGO,CITY OF CHICAGO,60646,Illinois,United States
4701 NORTH WINTHROP AVE.,CHICAGO,CITY OF CHICAGO,60640,Illinois,United States
3053 S NORMAL AVE,CHICAGO,CITY OF CHICAGO,60616,Illinois,United States
6116 W IRVING PARK RD,CHICAGO,CITY OF CHICAGO,60634,Illinois,United States
3255 N CENTRAL AVE,CHICAGO,CITY OF CHICAGO,60634,Illinois,United States
2105 W ARMITAGE AVE # 2111,CHICAGO,CITY OF CHICAGO,60647,Illinois,United States
9304 S ASHLAND AVE # 08,CHICAGO,CITY OF CHICAGO,60620,Illinois,United States
6818 W BELMONT AVE,CHICAGO,CITY OF CHICAGO,60634,Illinois,United States
11306 S EDBROOKE AVE,CHICAGO,CITY OF CHICAGO,60628,Illinois,United States
6139 S WASHTENAW AVE,CHICAGO,CITY OF CHICAGO,60629,Illinois,United States
8031 S INDIANA AVE,CHICAGO,CITY OF CHICAGO,60619,Illinois,United States
11044 S PRINCETON AVE,CHICAGO,CITY OF CHICAGO,60628,Illinois,United States
7106 S CARPENTER ST,CHICAGO,CITY OF CHICAGO,60621,Illinois,United States
151 E 114TH PL,CHICAGO,CITY OF CHICAGO,60628,Illinois,United States
1801 W CHICAGO AVE STE 1,CHICAGO,CITY OF CHICAGO,60622,Illinois,United States
200 W 110TH ST APT 1,CHICAGO,CITY OF CHICAGO,60628,Illinois,United States
1516 S MILLARD AVE APT 2,CHICAGO,CITY OF CHICAGO,60623,Illinois,United States
7922 S OGLESBY AVE,CHICAGO,CITY OF CHICAGO,60617,Illinois,United States
2409 E 79TH ST,CHICAGO,CITY OF CHICAGO,60649,Illinois,United States
2301 S WENTWORTH AVE,CHICAGO,CITY OF CHICAGO,60616,Illinois,United States
4405 N SHERIDAN RD # 07,CHICAGO,CITY OF CHICAGO,60640,Illinois,United States
1945 W WILSON STE 200,CHICAGO,,60640,Illinois,United States
5941 S SANGAMON,CHICAGO,,60621,Illinois,United States
3510 W POLK ST,CHICAGO,,60624,Illinois,United States
2335 W FOSTER AVE,CHICAGO,,60625,Illinois,United States
3911 N WESTERN AVE,CHICAGO,,60618,Illinois,United States
3811 NORTH LINCOLN AVENUE,CHICAGO,,60613,Illinois,United States
4732 W MC LEAN,CHICAGO,,60639,Illinois,United States
2820 W NORTH AVE,CHICAGO,,60647,Illinois,United States
3811 W. FULLERTON,CHICAGO,,60647,Illinois,United States
1234 W ALBION ST,CHICAGO,,60626,Illinois,United States
3600 S HALSTED ST,CHICAGO,,60609,Illinois,United States
7301 S YATES BLVD,CHICAGO,,60649,Illinois,United States
230 NORTH PARKSIDE  APT 2ND FL,CHICAGO,,60644,Illinois,United States
1335 W RANDOLPH ST,CHICAGO,,60607,Illinois,United States
1118 ADAMS ST,NORTH CHICAGO,,60064,Illinois,United States
624 & 626 EAST 47TH STREET,CHICAGO,,60653,Illinois,United States
5700 SOUTH ASHLAND AVENUE,CHICAGO,,60636,Illinois,United States
4336 S VINCENNES AVE,CHICAGO,,60653,Illinois,United States
3735 W FULLERTON AVE,CHICAGO,,60647,Illinois,United States
2750 NORTH RACINE AVENUE,CHICAGO,,60614,Illinois,United States
2919 CHICAGO,SOUTH CHICAGO HTS,,60411,Illinois,United States
243 E 31ST ST,CHICAGO,,60616,Illinois,United States
2420 W LEMOYNE,CHICAGO,,60622,Illinois,United States
3817 W FULLERTON AVE,CHICAGO,,60647,Illinois,United States
4930 N MONTICELLO AVE APT BSMT,CHICAGO,,60625,Illinois,United States
3711 W MONTROSE 1R,CHICAGO,,60618,Illinois,United States
1644 N HUMBOLDT BLVD,CHICAGO,,60647,Illinois,United States
1934 WEST 79TH STREET,CHICAGO,,60620,Illinois,United States
448-454 E 61ST STREET 1ST FL,CHICAGO,,60637,Illinois,United States
514 522 W 103RD STREET,CHICAGO,,60628,Illinois,United States
5715 N LINCOLN AVE,CHICAGO,,60659,Illinois,United States
4800 S LAKE PARK,CHICAGO,,60615,Illinois,United States
4243 N NORTH AVE,CHICAGO,,60639,Illinois,United States
4541 SOUTH CALUMET AVENUE 2ND,CHICAGO,,60653,Illinois,United States
1900 W JACKSON BLVD,CHICAGO,,60612,Illinois,United States
8907 S COTTAGE GROVE AVE,CHICAGO,,60619,Illinois,United States
907 NORTH MENARD,CHICAGO,,60651,Illinois,United States
9257 S UNION AVE,CHICAGO,,60620,Illinois,United States
6120 NORTH WASHTENAW,CHICAGO,,60659,Illinois,United States
27 WEST 500 NORTH AVENUE,WEST CHICAGO,,60185,Illinois,United States
5130 W WOLFRAM ST,CHICAGO,,60641,Illinois,United States
8155 S. TROY,CHICAGO,,60652,Illinois,United States
540 N LAKE SHORE DRIVE,CHICAGO,,60611,Illinois,United States
10530 SOUTH AVENUE M,CHICAGO,,60617,Illinois,United States
1834 N LAWNDALE,CHICAGO,,60647,Illinois,United States
2434 S KILDARE AVENUE,CHICAGO,,60623,Illinois,United States
400 N MCCLURG,CHICAGO,,60611,Illinois,United States
6020 N WINCHESTER,CHICAGO,,60660,Illinois,United States
2252 N LACROSSE,CHICAGO,,60639,Illinois,United States
3012 E 92ND ST # 16,CHICAGO,,60617,Illinois,United States
1858 N DAMEN AVE,CHICAGO,,60647,Illinois,United States
1522 W HOWARD ST #24,CHICAGO,,60626,Illinois,United States
1627 S CENTRAL PARK,CHICAGO,,60623,Illinois,United States
5501 S LASALLE ST,CHICAGO,,60621,Illinois,United States
5635 W NORTH AVE,CHICAGO,,60639,Illinois,United States
212 W 113TH ST,CHICAGO,,60628,Illinois,United States
2645 W 86TH ST,CHICAGO,,60652,Illinois,United States
1112 TO 1124 WEST 69TH STREET,CHICAGO,,60621,Illinois,United States
7622 W BELMONT AVENUE,CHICAGO,,60634,Illinois,United States
360 E SOUTH WATER ST,CHICAGO,,60601,Illinois,United States
